ZIPCODE,CITY,STATE,COUNTY,LATITUDE,LONGITUDE
75763,Frankston,TX,Anderson,32.0535,-95.5163
75779,Neches,TX,Anderson,31.7942,-95.662
75801,Palestine,TX,Anderson,31.7588,-95.6342
75802,Palestine,TX,Anderson,31.9268,-95.5796
75803,Palestine,TX,Adams,31.7571,-95.6545
75832,Cayuga,TX,Anderson,31.7942,-95.662
75839,Elkhart,TX,Anderson,31.648,-95.5551
75853,Montalba,TX,Anderson,31.9329,-95.7935
75861,Tennessee Colony,TX,Anderson,31.7929,-95.8998
75880,Tennessee Colony,TX,Anderson,31.7942,-95.662
75882,Palestine,TX,Anderson,31.7942,-95.662
75884,Tennessee Colony,TX,Anderson,31.7942,-95.662
75886,Tennessee Colony,TX,Anderson,31.7942,-95.662
79714,Andrews,TX,Andrews,32.3201,-102.5409
75901,Lufkin,TX,Angelina,31.27,-94.6469
75902,Lufkin,TX,Angelina,31.3623,-94.7611
75903,Lufkin,TX,Angelina,31.2766,-94.5676
75904,Lufkin,TX,Angelina,31.3489,-94.8327
75915,Lufkin,TX,Angelina,31.2873,-94.5771
75941,Diboll,TX,Angelina,31.195,-94.7729
75949,Huntington,TX,Angelina,31.2837,-94.5662
75969,Pollok,TX,Angelina,31.4291,-94.8254
75980,Zavalla,TX,Angelina,31.1569,-94.3871
78358,Fulton,TX,Aransas,28.0865,-97.0416
78381,Rockport,TX,Aransas,28.0131,-97.0936
78382,Rockport,TX,Aransas,28.0308,-97.0688
76351,Archer City,TX,Archer,33.5562,-98.6249
76366,Holliday,TX,Archer,33.6751,-98.6576
76370,Megargel,TX,Archer,33.4533,-98.9297
76379,Scotland,TX,Archer,33.6535,-98.465
76389,Windthorst,TX,Archer,33.5796,-98.4376
79019,Claude,TX,Armstrong,35.0967,-101.3813
79094,Wayside,TX,Armstrong,34.9653,-101.3578
78008,Campbellton,TX,Atascosa,28.767,-98.2566
78011,Charlotte,TX,Atascosa,28.8649,-98.707
78012,Christine,TX,Atascosa,28.7858,-98.4886
78026,Jourdanton,TX,Atascosa,28.903,-98.544
78050,Leming,TX,Atascosa,29.077,-98.509
78052,Lytle,TX,Atascosa,29.2366,-98.7945
78053,Mc Coy,TX,Atascosa,28.8518,-98.2685
78062,Peggy,TX,Atascosa,28.92,-98.5529
78064,Pleasanton,TX,Atascosa,28.9924,-98.4831
78065,Poteet,TX,Atascosa,29.0994,-98.6241
77418,Bellville,TX,Austin,29.9658,-96.2531
77452,Kenney,TX,Austin,29.8493,-96.3133
77473,San Felipe,TX,Austin,29.8019,-96.1014
77474,Sealy,TX,Austin,29.7826,-96.1592
77485,Wallis,TX,Austin,29.6397,-96.0456
78931,Bleiblerville,TX,Austin,29.8493,-96.3133
78933,Cat Spring,TX,Austin,29.7512,-96.39
78944,Industry,TX,Austin,29.9904,-96.4843
78950,New Ulm,TX,Austin,29.9134,-96.4961
79320,Bula,TX,Bailey,33.897,-102.6564
79324,Enochs,TX,Bailey,33.8502,-102.7641
79344,Maple,TX,Bailey,33.8622,-102.9266
79347,Muleshoe,TX,Bailey,34.2193,-102.7496
78003,Bandera,TX,Bandera,29.7276,-99.0453
78055,Medina,TX,Bandera,29.8475,-99.3215
78063,Pipe Creek,TX,Bandera,29.6796,-98.9484
78883,Tarpley,TX,Bandera,29.6455,-99.2469
78885,Vanderpool,TX,Bandera,29.7418,-99.5555
78602,Bastrop,TX,Bastrop,30.1388,-97.2921
78612,Cedar Creek,TX,Bastrop,30.0966,-97.4976
78621,Elgin,TX,Bastrop,30.3231,-97.3737
78650,Mc Dade,TX,Bastrop,30.2968,-97.2386
78659,Paige,TX,Bastrop,30.1858,-97.1198
78662,Red Rock,TX,Bastrop,29.9906,-97.4081
78953,Rosanky,TX,Bastrop,29.9241,-97.3119
78957,Smithville,TX,Bastrop,30.0178,-97.1494
76380,Seymour,TX,Baylor,33.5914,-99.2587
78102,Beeville,TX,Bee,28.4222,-97.7616
78104,Beeville,TX,Bee,28.3931,-97.776
78125,Mineral,TX,Bee,28.5552,-97.9407
78142,Normanna,TX,Bee,28.5278,-97.7831
78145,Pawnee,TX,Bee,28.6526,-97.9921
78146,Pettus,TX,Bee,28.6164,-97.8082
78162,Tuleta,TX,Bee,28.4245,-97.7327
78389,Skidmore,TX,Bee,28.2121,-97.7127
78391,Tynan,TX,Bee,28.1693,-97.7549
76501,Temple,TX,Bell,31.0895,-97.3343
76502,Temple,TX,Bell,31.071,-97.3898
76503,Temple,TX,Bell,31.054,-97.3203
76504,Temple,TX,Bell,31.0917,-97.3648
76505,Temple,TX,Bell,31.0363,-97.492
76508,Temple,TX,Bell,31.0363,-97.492
76511,Bartlett,TX,Bell,30.7991,-97.4263
76513,Belton,TX,Bell,31.0723,-97.472
76533,Heidenheimer,TX,Bell,31.0496,-97.4936
76534,Holland,TX,Bell,30.88,-97.3857
76540,Killeen,TX,Bell,31.0858,-97.3571
76541,Killeen,TX,Bell,31.1164,-97.7278
76542,Killeen,TX,Bell,31.0376,-97.6809
76543,Killeen,TX,Bell,31.1172,-97.6651
76544,Killeen,TX,Bell,31.1282,-97.7469
76545,Killeen,TX,Bell,31.0363,-97.492
76546,Killeen,TX,Bell,31.0363,-97.492
76547,Killeen,TX,Bell,31.0363,-97.492
76548,Harker Heights,TX,Bell,31.0286,-97.6115
76549,Killeen,TX,Bell,31.0065,-97.841
76554,Little River,TX,Bell,30.963,-97.3616
76559,Nolanville,TX,Bell,31.0833,-97.5941
76564,Pendleton,TX,Bell,31.0363,-97.492
76569,Rogers,TX,Bell,30.955,-97.2228
76571,Salado,TX,Bell,30.9494,-97.533
76579,Troy,TX,Bell,31.1759,-97.2852
78002,Atascosa,TX,Bexar,29.2705,-98.7421
78015,Boerne,TX,Bexar,29.7327,-98.6646
78023,Helotes,TX,Bexar,29.6321,-98.7542
78054,Macdona,TX,Bexar,29.3256,-98.7322
78069,Somerset,TX,Bexar,29.2205,-98.6678
78073,Von Ormy,TX,Bexar,29.275,-98.6677
78101,Adkins,TX,Bexar,29.3805,-98.265
78109,Converse,TX,Bexar,29.5173,-98.3217
78112,Elmendorf,TX,Bexar,29.2308,-98.372
78148,Universal City,TX,Bexar,29.5465,-98.2954
78150,Universal City,TX,Bexar,29.4375,-98.4616
78152,Saint Hedwig,TX,Bexar,29.4353,-98.1952
78201,San Antonio,TX,Bexar,29.4711,-98.5356
78202,San Antonio,TX,Bexar,29.4275,-98.4601
78203,San Antonio,TX,Bexar,29.4148,-98.4601
78204,San Antonio,TX,Bexar,29.4059,-98.5078
78205,San Antonio,TX,Bexar,29.4237,-98.4925
78206,San Antonio,TX,Bexar,29.4375,-98.4616
78207,San Antonio,TX,Bexar,29.4229,-98.526
78208,San Antonio,TX,Bexar,29.44,-98.459
78209,San Antonio,TX,Bexar,29.4821,-98.4554
78210,San Antonio,TX,Bexar,29.3977,-98.4658
78211,San Antonio,TX,Bexar,29.3499,-98.5638
78212,San Antonio,TX,Bexar,29.4388,-98.4935
78213,San Antonio,TX,Bexar,29.5234,-98.5273
78214,San Antonio,TX,Bexar,29.3641,-98.4924
78215,San Antonio,TX,Bexar,29.4413,-98.4793
78216,San Antonio,TX,Bexar,29.5334,-98.4975
78217,San Antonio,TX,Bexar,29.5395,-98.4194
78218,San Antonio,TX,Bexar,29.4969,-98.4032
78219,San Antonio,TX,Bexar,29.4492,-98.3446
78220,San Antonio,TX,Bexar,29.4106,-98.4128
78221,San Antonio,TX,Bexar,29.3309,-98.5054
78222,San Antonio,TX,Bexar,29.3831,-98.396
78223,San Antonio,TX,Bexar,29.3579,-98.4356
78224,San Antonio,TX,Bexar,29.3374,-98.5393
78225,San Antonio,TX,Bexar,29.3875,-98.5245
78226,San Antonio,TX,Bexar,29.393,-98.5511
78227,San Antonio,TX,Bexar,29.4027,-98.6433
78228,San Antonio,TX,Bexar,29.4589,-98.5699
78229,San Antonio,TX,Bexar,29.5042,-98.5697
78230,San Antonio,TX,Bexar,29.5407,-98.5521
78231,San Antonio,TX,Bexar,29.5714,-98.5414
78232,San Antonio,TX,Bexar,29.5863,-98.4769
78233,San Antonio,TX,Bexar,29.5563,-98.3643
78234,San Antonio,TX,Bexar,29.4622,-98.4423
78235,San Antonio,TX,Bexar,29.3494,-98.4422
78236,San Antonio,TX,Bexar,29.3887,-98.6112
78237,San Antonio,TX,Bexar,29.4208,-98.5645
78238,San Antonio,TX,Bexar,29.451,-98.6169
78239,San Antonio,TX,Bexar,29.5182,-98.3627
78240,San Antonio,TX,Bexar,29.5189,-98.6006
78241,San Antonio,TX,Bexar,29.4375,-98.4616
78242,San Antonio,TX,Bexar,29.3509,-98.6109
78243,San Antonio,TX,Bexar,29.4375,-98.4616
78244,San Antonio,TX,Bexar,29.4793,-98.3476
78245,San Antonio,TX,Bexar,29.4189,-98.6895
78246,San Antonio,TX,Bexar,29.4375,-98.4616
78247,San Antonio,TX,Bexar,29.5765,-98.3991
78248,San Antonio,TX,Bexar,29.5894,-98.5201
78249,San Antonio,TX,Bexar,29.5612,-98.6117
78250,San Antonio,TX,Bexar,29.5054,-98.6688
78251,San Antonio,TX,Bexar,29.4597,-98.6555
78252,San Antonio,TX,Bexar,29.346,-98.6464
78253,San Antonio,TX,Bexar,29.4599,-98.7479
78254,San Antonio,TX,Bexar,29.5551,-98.7442
78255,San Antonio,TX,Bexar,29.6701,-98.6873
78256,San Antonio,TX,Bexar,29.6169,-98.6252
78257,San Antonio,TX,Bexar,29.6495,-98.6137
78258,San Antonio,TX,Bexar,29.6562,-98.4967
78259,San Antonio,TX,Bexar,29.6283,-98.4445
78260,San Antonio,TX,Bexar,29.7026,-98.4759
78261,San Antonio,TX,Bexar,29.7055,-98.4191
78262,San Antonio,TX,Bexar,29.4493,-98.2904
78263,San Antonio,TX,Bexar,29.3614,-98.3174
78264,San Antonio,TX,Bexar,29.1733,-98.4723
78265,San Antonio,TX,Bexar,29.4375,-98.4616
78268,San Antonio,TX,Bexar,29.4375,-98.4616
78269,San Antonio,TX,Bexar,29.4375,-98.4616
78270,San Antonio,TX,Bexar,29.4375,-98.4616
78275,San Antonio,TX,Bexar,29.4375,-98.4616
78278,San Antonio,TX,Bexar,29.4375,-98.4616
78279,San Antonio,TX,Bexar,29.4375,-98.4616
78280,San Antonio,TX,Bexar,29.4375,-98.4616
78283,San Antonio,TX,Bexar,29.4375,-98.4616
78284,San Antonio,TX,Bexar,29.4426,-98.4913
78285,San Antonio,TX,Bexar,29.4375,-98.4616
78286,San Antonio,TX,Bexar,29.4375,-98.4616
78287,San Antonio,TX,Bexar,29.4375,-98.4616
78288,San Antonio,TX,Bexar,29.4375,-98.4616
78289,San Antonio,TX,Bexar,29.4375,-98.4616
78291,San Antonio,TX,Bexar,29.4375,-98.4616
78292,San Antonio,TX,Bexar,29.4375,-98.4616
78293,San Antonio,TX,Bexar,29.4375,-98.4616
78294,San Antonio,TX,Bexar,29.4375,-98.4616
78295,San Antonio,TX,Bexar,29.4375,-98.4616
78296,San Antonio,TX,Bexar,29.4375,-98.4616
78297,San Antonio,TX,Bexar,29.4375,-98.4616
78298,San Antonio,TX,Bexar,29.4375,-98.4616
78299,San Antonio,TX,Bexar,29.4375,-98.4616
78606,Blanco,TX,Blanco,30.0874,-98.4107
78635,Hye,TX,Blanco,30.2269,-98.5396
78636,Johnson City,TX,Blanco,30.2948,-98.3691
78663,Round Mountain,TX,Blanco,30.4429,-98.4365
78665,Sandy,TX,Blanco,30.2198,-98.3586
79738,Gail,TX,Borden,32.7523,-101.45
76634,Clifton,TX,Bosque,31.7918,-97.5203
76637,Cranfills Gap,TX,Bosque,31.7486,-97.8113
76644,Laguna Park,TX,Bosque,31.8974,-97.641
76649,Iredell,TX,Bosque,31.9722,-97.8793
76652,Kopperl,TX,Bosque,32.1035,-97.5421
76665,Meridian,TX,Bosque,31.929,-97.6443
76671,Morgan,TX,Bosque,32.0195,-97.5608
76689,Valley Mills,TX,Bosque,31.6599,-97.4935
76690,Walnut Springs,TX,Bosque,32.0593,-97.7514
75501,Texarkana,TX,Bowie,33.4113,-94.1774
75503,Texarkana,TX,Bowie,33.4669,-94.0774
75504,Texarkana,TX,Bowie,33.4766,-94.395
75505,Texarkana,TX,Bowie,33.4624,-94.0715
75507,Texarkana,TX,Bowie,33.3934,-94.3404
75559,De Kalb,TX,Bowie,33.4727,-94.6211
75561,Hooks,TX,Bowie,33.5253,-94.2657
75567,Maud,TX,Bowie,33.3409,-94.3175
75569,Nash,TX,Bowie,33.4344,-94.1219
75570,New Boston,TX,Bowie,33.4211,-94.372
75573,Redwater,TX,Bowie,33.358,-94.2571
75574,Simms,TX,Bowie,33.3359,-94.552
75599,Texarkana,TX,Bowie,33.4766,-94.395
77422,Brazoria,TX,Brazoria,29.0236,-95.5867
77430,Damon,TX,Brazoria,29.3014,-95.7036
77431,Danciger,TX,Brazoria,29.1737,-95.8207
77463,Old Ocean,TX,Brazoria,29.1308,-95.7916
77480,Sweeny,TX,Brazoria,29.0415,-95.7004
77486,West Columbia,TX,Brazoria,29.1408,-95.6694
77511,Alvin,TX,Brazoria,29.412,-95.2515
77512,Alvin,TX,Brazoria,29.3629,-95.276
77515,Angleton,TX,Brazoria,29.181,-95.4467
77516,Angleton,TX,Brazoria,29.184,-95.4651
77531,Clute,TX,Brazoria,29.0325,-95.4026
77534,Danbury,TX,Brazoria,29.2291,-95.3435
77541,Freeport,TX,Brazoria,29.0357,-95.3379
77542,Freeport,TX,Brazoria,29.184,-95.4651
77566,Lake Jackson,TX,Brazoria,29.0393,-95.4401
77577,Liverpool,TX,Brazoria,29.2667,-95.2889
77578,Manvel,TX,Brazoria,29.4694,-95.3503
77581,Pearland,TX,Brazoria,29.5617,-95.2721
77583,Rosharon,TX,Brazoria,29.4203,-95.4537
77584,Pearland,TX,Brazoria,29.5405,-95.3208
77588,Pearland,TX,Brazoria,29.5127,-95.2542
77801,Bryan,TX,Brazos,30.6327,-96.3662
77802,Bryan,TX,Brazos,30.6582,-96.3351
77803,Bryan,TX,Brazos,30.6913,-96.3714
77805,Bryan,TX,Brazos,30.6521,-96.341
77806,Bryan,TX,Brazos,30.6521,-96.341
77807,Bryan,TX,Brazos,30.6711,-96.4799
77808,Bryan,TX,Brazos,30.8202,-96.3059
77840,College Station,TX,Brazos,30.6045,-96.3123
77841,College Station,TX,Brazos,30.5726,-96.327
77842,College Station,TX,Brazos,30.6521,-96.341
77843,College Station,TX,Brazos,30.6521,-96.341
77844,College Station,TX,Brazos,30.6521,-96.341
77845,College Station,TX,Brazos,30.5118,-96.3171
77862,Kurten,TX,Brazos,30.6521,-96.341
77866,Millican,TX,Brazos,30.4491,-96.217
77869,Navasota,TX,Brazos,30.6521,-96.341
77881,Wellborn,TX,Brazos,30.6521,-96.341
79830,Alpine,TX,Brewster,30.2631,-103.6541
79831,Alpine,TX,Brewster,30.3068,-103.6704
79832,Alpine,TX,Brewster,30.3631,-103.6539
79834,Big Bend National Park,TX,Brewster,29.2924,-103.2963
79842,Marathon,TX,Brewster,30.1886,-103.2214
79852,Terlingua,TX,Brewster,29.3165,-103.5597
79255,Quitaque,TX,Briscoe,34.3796,-101.0465
79257,Silverton,TX,Briscoe,34.4641,-101.3169
78353,Encino,TX,Brooks,26.9249,-98.1922
78355,Falfurrias,TX,Brooks,27.2242,-98.1408
76432,Blanket,TX,Brown,31.7882,-98.8311
76801,Brownwood,TX,Brown,31.7754,-98.9915
76802,Early,TX,Brown,31.7874,-98.9229
76803,Brownwood,TX,Brown,31.7639,-98.936
76804,Brownwood,TX,Brown,31.7742,-99.0921
76823,Bangs,TX,Brown,31.7503,-99.1568
76827,Brookesmith,TX,Brown,31.5176,-99.1277
76857,May,TX,Brown,31.9571,-98.9656
76890,Zephyr,TX,Brown,31.6694,-98.8182
77836,Caldwell,TX,Burleson,30.5298,-96.7143
77838,Chriesman,TX,Burleson,30.5131,-96.618
77839,Clay,TX,Burleson,30.3414,-96.5267
77852,Deanville,TX,Burleson,30.5131,-96.618
77863,Lyons,TX,Burleson,30.3592,-96.5915
77878,Snook,TX,Burleson,30.4702,-96.4804
77879,Somerville,TX,Burleson,30.4076,-96.5358
78605,Bertram,TX,Burnet,30.7411,-98.0529
78608,Briggs,TX,Burnet,30.9325,-97.9702
78611,Burnet,TX,Burnet,30.7766,-98.2642
78654,Marble Falls,TX,Burnet,30.4912,-98.2058
78657,Marble Falls,TX,Burnet,30.5373,-98.3737
78616,Dale,TX,Caldwell,29.9528,-97.581
78622,Fentress,TX,Caldwell,29.7648,-97.7728
78644,Lockhart,TX,Caldwell,29.8868,-97.6769
78648,Luling,TX,Caldwell,29.6826,-97.6499
78655,Martindale,TX,Caldwell,29.8394,-97.8508
78656,Maxwell,TX,Caldwell,29.8953,-97.8144
78661,Prairie Lea,TX,Caldwell,29.7239,-97.7449
77972,Long Mott,TX,Calhoun,28.5255,-96.6948
77978,Point Comfort,TX,Calhoun,28.6651,-96.5506
77979,Port Lavaca,TX,Calhoun,28.6011,-96.6259
77982,Port O Connor,TX,Calhoun,28.14,-96.7751
77983,Seadrift,TX,Calhoun,28.4101,-96.7023
76443,Cross Plains,TX,Callahan,32.1482,-99.1872
76469,Putnam,TX,Callahan,32.374,-99.1957
79504,Baird,TX,Callahan,32.3916,-99.3777
79510,Clyde,TX,Callahan,32.3803,-99.5184
78520,Brownsville,TX,Cameron,25.9337,-97.5174
78521,Brownsville,TX,Cameron,25.9221,-97.4612
78522,Brownsville,TX,Cameron,26.1889,-97.7643
78523,Brownsville,TX,Cameron,25.981,-97.5209
78526,Brownsville,TX,Cameron,25.9717,-97.4699
78535,Combes,TX,Cameron,26.2451,-97.7416
78550,Harlingen,TX,Cameron,26.1951,-97.689
78551,Harlingen,TX,Cameron,26.2447,-97.7206
78552,Harlingen,TX,Cameron,26.1831,-97.7468
78553,Harlingen,TX,Cameron,26.1252,-97.4757
78559,La Feria,TX,Cameron,26.1666,-97.8261
78566,Los Fresnos,TX,Cameron,26.1158,-97.4107
78567,Los Indios,TX,Cameron,26.0417,-97.6937
78568,Lozano,TX,Cameron,26.1904,-97.5423
78575,Olmito,TX,Cameron,26.0353,-97.5496
78578,Port Isabel,TX,Cameron,26.0879,-97.2557
78583,Rio Hondo,TX,Cameron,26.2339,-97.5513
78586,San Benito,TX,Cameron,26.1337,-97.6447
78592,Santa Maria,TX,Cameron,26.0785,-97.8351
78593,Santa Rosa,TX,Cameron,26.2555,-97.8257
78597,South Padre Island,TX,Cameron,26.2393,-97.1936
75451,Leesburg,TX,Camp,32.9763,-95.1079
75686,Pittsburg,TX,Camp,32.9623,-94.9603
79039,Groom,TX,Carson,35.2168,-101.1285
79068,Panhandle,TX,Carson,35.3808,-101.4304
79080,Skellytown,TX,Carson,35.5685,-101.1721
79097,White Deer,TX,Carson,35.4278,-101.174
75551,Atlanta,TX,Cass,33.109,-94.1646
75555,Bivins,TX,Cass,32.966,-94.1404
75556,Bloomburg,TX,Cass,33.1339,-94.0647
75560,Douglassville,TX,Cass,33.1758,-94.3467
75562,Kildare,TX,Cass,32.9468,-94.2539
75563,Linden,TX,Cass,33.0048,-94.3605
75565,Mc Leod,TX,Cass,32.9511,-94.0808
75566,Marietta,TX,Cass,33.1796,-94.5421
75572,Queen City,TX,Cass,33.1557,-94.1537
75630,Avinger,TX,Cass,32.8485,-94.5795
75656,Hughes Springs,TX,Cass,33.0168,-94.6228
79027,Dimmitt,TX,Castro,34.5341,-102.3046
79043,Hart,TX,Castro,34.3878,-102.1155
79063,Nazareth,TX,Castro,34.5444,-102.1069
79085,Summerfield,TX,Castro,34.7437,-102.5064
77514,Anahuac,TX,Chambers,29.662,-94.593
77560,Hankamer,TX,Chambers,29.8752,-94.5938
77580,Mont Belvieu,TX,Chambers,29.8561,-94.8429
77597,Wallisville,TX,Chambers,29.8591,-94.6759
77661,Stowell,TX,Chambers,29.7809,-94.39
77665,Winnie,TX,Chambers,29.8157,-94.3395
75759,Cuney,TX,Cherokee,32.0415,-95.42
75764,Gallatin,TX,Cherokee,31.8849,-95.1572
75766,Jacksonville,TX,Cherokee,31.9618,-95.2703
75772,Maydelle,TX,Cherokee,31.8008,-95.3001
75780,New Summerfield,TX,Cherokee,31.782,-95.164
75784,Reklaw,TX,Cherokee,31.8859,-95.0118
75785,Rusk,TX,Cherokee,31.8136,-95.0965
75925,Alto,TX,Cherokee,31.6103,-95.0762
75976,Wells,TX,Cherokee,31.4998,-94.9694
79201,Childress,TX,Childress,34.4104,-100.2364
79222,Carey,TX,Childress,34.5297,-100.2076
79238,Kirkland,TX,Childress,34.5297,-100.2076
79259,Tell,TX,Childress,34.5158,-100.3301
76228,Bellevue,TX,Clay,33.5879,-98.1574
76352,Bluegrove,TX,Clay,33.8117,-98.1848
76357,Byers,TX,Clay,34.0728,-98.1839
76365,Henrietta,TX,Clay,33.8196,-98.26
76377,Petrolia,TX,Clay,34.0273,-98.2692
79314,Bledsoe,TX,Cochran,33.5997,-103.0168
79346,Morton,TX,Cochran,33.7157,-102.7796
79379,Whiteface,TX,Cochran,33.5988,-102.6199
76933,Bronte,TX,Coke,31.8789,-100.2988
76945,Robert Lee,TX,Coke,31.8951,-100.5104
76949,Silver,TX,Coke,32.0484,-100.6922
76953,Tennyson,TX,Coke,31.7397,-100.2884
76828,Burkett,TX,Coleman,31.9986,-99.2553
76834,Coleman,TX,Coleman,31.8287,-99.427
76845,Gouldbusk,TX,Coleman,31.5511,-99.5136
76873,Rockwood,TX,Coleman,31.5037,-99.3746
76878,Santa Anna,TX,Coleman,31.7215,-99.3212
76882,Talpa,TX,Coleman,31.8034,-99.6747
76884,Valera,TX,Coleman,31.7731,-99.564
76888,Voss,TX,Coleman,31.5892,-99.6326
79519,Goldsboro,TX,Coleman,32.0482,-99.6775
79538,Novice,TX,Coleman,32.0009,-99.5935
75002,Allen,TX,Collin,33.0934,-96.6454
75009,Celina,TX,Collin,33.3103,-96.7673
75013,Allen,TX,Collin,33.1186,-96.6773
75023,Plano,TX,Collin,33.055,-96.7365
75024,Plano,TX,Collin,33.0752,-96.7843
75025,Plano,TX,Collin,33.0784,-96.7291
75026,Plano,TX,Collin,33.1936,-96.5699
75034,Frisco,TX,Collin,33.1499,-96.8241
75035,Frisco,TX,Collin,33.1377,-96.7524
75069,Mc Kinney,TX,Collin,33.1966,-96.6085
75070,Mc Kinney,TX,Collin,33.1951,-96.6642
75071,Mc Kinney,TX,Collin,33.2141,-96.7533
75074,Plano,TX,Collin,33.0277,-96.6777
75075,Plano,TX,Collin,33.025,-96.7397
75078,Prosper,TX,Collin,33.2362,-96.7954
75086,Plano,TX,Collin,33.0024,-96.6158
75093,Plano,TX,Collin,33.0299,-96.7889
75094,Plano,TX,Collin,33.0148,-96.6189
75097,Weston,TX,Collin,33.3512,-96.6646
75121,Copeville,TX,Collin,33.0875,-96.4186
75164,Josephine,TX,Collin,33.0598,-96.3248
75166,Lavon,TX,Collin,33.0139,-96.4377
75173,Nevada,TX,Collin,33.0593,-96.3877
75407,Princeton,TX,Collin,33.1555,-96.4981
75409,Anna,TX,Collin,33.3445,-96.5639
75424,Blue Ridge,TX,Collin,33.3061,-96.3901
75442,Farmersville,TX,Collin,33.1659,-96.3686
75454,Melissa,TX,Collin,33.2841,-96.574
75485,Westminster,TX,Collin,33.3627,-96.4635
79077,Samnorwood,TX,Collingsworth,34.8405,-100.2049
79095,Wellington,TX,Collingsworth,34.8717,-100.2207
79230,Dodson,TX,Collingsworth,34.7644,-100.0286
79251,Quail,TX,Collingsworth,34.918,-100.4252
77412,Altair,TX,Colorado,29.6047,-96.5249
77434,Eagle Lake,TX,Colorado,29.5842,-96.3354
77442,Garwood,TX,Colorado,29.476,-96.4919
77460,Nada,TX,Colorado,29.6047,-96.5249
77470,Rock Island,TX,Colorado,29.4745,-96.5796
77475,Sheridan,TX,Colorado,29.4452,-96.6536
78934,Columbus,TX,Colorado,29.7032,-96.5527
78935,Alleyton,TX,Colorado,29.7092,-96.4865
78943,Glidden,TX,Colorado,29.6994,-96.5942
78951,Oakland,TX,Colorado,29.6047,-96.5249
78962,Weimar,TX,Colorado,29.6787,-96.755
78070,Spring Branch,TX,Comal,29.9238,-98.3788
78130,New Braunfels,TX,Comal,29.7229,-98.0742
78131,New Braunfels,TX,Comal,29.7992,-98.3384
78132,New Braunfels,TX,Comal,29.7565,-98.1983
78133,Canyon Lake,TX,Comal,29.9112,-98.2374
78135,New Braunfels,TX,Comal,29.7385,-98.0872
78163,Bulverde,TX,Comal,29.7767,-98.4626
78266,San Antonio,TX,Comal,29.6643,-98.3118
78623,Fischer,TX,Comal,29.9627,-98.2088
76442,Comanche,TX,Comanche,31.9116,-98.6082
76444,De Leon,TX,Comanche,32.1087,-98.5489
76452,Energy,TX,Comanche,31.7633,-98.3999
76455,Gustine,TX,Comanche,31.8468,-98.4017
76468,Proctor,TX,Comanche,31.9963,-98.4003
76474,Sidney,TX,Comanche,31.932,-98.768
76837,Eden,TX,Concho,31.2192,-99.8407
76855,Lowake,TX,Concho,31.3336,-99.8584
76862,Millersview,TX,Concho,31.4167,-99.7171
76866,Paint Rock,TX,Concho,31.5048,-99.9139
76937,Eola,TX,Concho,31.3617,-100.0922
76238,Era,TX,Cooke,33.4965,-97.3859
76240,Gainesville,TX,Cooke,33.6547,-97.1583
76241,Gainesville,TX,Cooke,33.6104,-97.0369
76250,Lindsay,TX,Cooke,33.636,-97.2214
76252,Muenster,TX,Cooke,33.6595,-97.3624
76253,Myra,TX,Cooke,33.6178,-97.309
76263,Rosston,TX,Cooke,33.4878,-97.4212
76272,Valley View,TX,Cooke,33.5022,-97.2311
76522,Copperas Cove,TX,Coryell,31.2029,-97.9301
76525,Evant,TX,Coryell,31.4388,-98.0535
76526,Flat,TX,Coryell,31.2956,-97.5822
76528,Gatesville,TX,Coryell,31.4177,-97.833
76538,Jonesboro,TX,Coryell,31.5599,-97.8456
76552,Leon Junction,TX,Coryell,31.3512,-97.5485
76558,Mound,TX,Coryell,31.3514,-97.6444
76561,Oglesby,TX,Coryell,31.4438,-97.5501
76566,Purmela,TX,Coryell,31.4841,-97.9903
76596,Gatesville,TX,Coryell,31.3902,-97.7993
76597,Gatesville,TX,Coryell,31.3902,-97.7993
76598,Gatesville,TX,Coryell,31.3902,-97.7993
76599,Gatesville,TX,Coryell,31.4706,-97.7347
79223,Cee Vee,TX,Cottle,34.2295,-100.4573
79224,Chalk,TX,Cottle,34.0749,-100.2582
79248,Paducah,TX,Cottle,34.0217,-100.2986
79731,Crane,TX,Crane,31.3969,-102.3544
76943,Ozona,TX,Crockett,30.7164,-101.2388
79322,Crosbyton,TX,Crosby,33.6562,-101.2287
79343,Lorenzo,TX,Crosby,33.6666,-101.5277
79357,Ralls,TX,Crosby,33.6851,-101.3836
79855,Van Horn,TX,Culberson,31.0391,-104.8245
79022,Dalhart,TX,Dallam,36.0732,-102.5177
79051,Kerrick,TX,Dallam,36.5663,-102.3438
79087,Texline,TX,Dallam,36.374,-102.9845
75001,Addison,TX,Dallas,32.9637,-96.8401
75006,Carrollton,TX,Dallas,32.9657,-96.8825
75011,Carrollton,TX,Dallas,32.7673,-96.7776
75014,Irving,TX,Dallas,32.7673,-96.7776
75015,Irving,TX,Dallas,32.7673,-96.7776
75016,Irving,TX,Dallas,32.7673,-96.7776
75017,Irving,TX,Dallas,32.7673,-96.7776
75019,Coppell,TX,Dallas,32.9673,-96.9805
75030,Rowlett,TX,Dallas,32.9175,-96.5347
75037,Irving,TX,Dallas,32.7673,-96.7776
75038,Irving,TX,Dallas,32.8653,-96.9905
75039,Irving,TX,Dallas,32.8697,-96.9389
75040,Garland,TX,Dallas,32.9227,-96.6248
75041,Garland,TX,Dallas,32.8794,-96.6411
75042,Garland,TX,Dallas,32.9185,-96.6775
75043,Garland,TX,Dallas,32.8565,-96.5999
75044,Garland,TX,Dallas,32.9522,-96.6654
75045,Garland,TX,Dallas,32.9137,-96.6271
75046,Garland,TX,Dallas,32.7673,-96.7776
75047,Garland,TX,Dallas,32.7673,-96.7776
75048,Sachse,TX,Yolo,32.9643,-96.6012
75048,Garland,TX,Dallas,32.9504,-96.5753
75049,Garland,TX,Dallas,32.7673,-96.7776
75050,Grand Prairie,TX,Dallas,32.7649,-97.0112
75051,Grand Prairie,TX,Dallas,32.7115,-97.0069
75052,Grand Prairie,TX,Dallas,32.6605,-97.0311
75053,Grand Prairie,TX,Dallas,32.7673,-96.7776
75054,Grand Prairie,TX,Dallas,32.7673,-96.7776
75060,Irving,TX,Dallas,32.8023,-96.9597
75061,Irving,TX,Dallas,32.8267,-96.9633
75062,Irving,TX,Dallas,32.8479,-96.974
75063,Irving,TX,Dallas,32.9247,-96.9598
75080,Richardson,TX,Dallas,32.966,-96.7452
75081,Richardson,TX,Dallas,32.9462,-96.7058
75082,Richardson,TX,Dallas,32.9865,-96.686
75083,Richardson,TX,Dallas,32.7673,-96.7776
75085,Richardson,TX,Dallas,32.7673,-96.7776
75088,Rowlett,TX,Dallas,32.9032,-96.5472
75089,Rowlett,TX,Dallas,32.9346,-96.5544
75098,Wylie,TX,Dallas,33.0041,-96.5394
75099,Coppell,TX,Dallas,32.771,-96.7996
75104,Cedar Hill,TX,Dallas,32.5885,-96.9438
75106,Cedar Hill,TX,Dallas,32.7673,-96.7776
75115,Desoto,TX,Dallas,32.6041,-96.8653
75116,Duncanville,TX,Dallas,32.6587,-96.9114
75123,Desoto,TX,Dallas,32.7673,-96.7776
75134,Lancaster,TX,Dallas,32.6161,-96.783
75137,Duncanville,TX,Dallas,32.6347,-96.9113
75138,Duncanville,TX,Dallas,32.7673,-96.7776
75141,Hutchins,TX,Dallas,32.6396,-96.707
75146,Lancaster,TX,Dallas,32.5914,-96.7728
75149,Mesquite,TX,Dallas,32.7678,-96.6082
75150,Mesquite,TX,Dallas,32.8154,-96.6307
75159,Seagoville,TX,Dallas,32.6525,-96.558
75172,Wilmer,TX,Dallas,32.5981,-96.6838
75180,Mesquite,TX,Dallas,32.7212,-96.6153
75181,Mesquite,TX,Dallas,32.7272,-96.5669
75182,Sunnyvale,TX,Dallas,32.797,-96.5616
75185,Mesquite,TX,Dallas,32.7403,-96.5618
75187,Mesquite,TX,Dallas,32.7673,-96.7776
75201,Dallas,TX,Dallas,32.7904,-96.8044
75202,Dallas,TX,Dallas,32.7781,-96.8054
75203,Dallas,TX,Dallas,32.746,-96.807
75204,Dallas,TX,Dallas,32.8038,-96.7851
75205,Dallas,TX,Dallas,32.826,-96.7843
75206,Dallas,TX,Dallas,32.831,-96.7692
75207,Dallas,TX,Dallas,32.7939,-96.8319
75208,Dallas,TX,Dallas,32.7492,-96.8389
75209,Dallas,TX,Dallas,32.8456,-96.826
75210,Dallas,TX,Dallas,32.7699,-96.743
75211,Dallas,TX,Dallas,32.7319,-96.9057
75212,Dallas,TX,Dallas,32.7829,-96.8714
75214,Dallas,TX,Dallas,32.8248,-96.7498
75215,Dallas,TX,Dallas,32.7582,-96.7623
75216,Dallas,TX,Dallas,32.7086,-96.7955
75217,Dallas,TX,Dallas,32.7244,-96.6755
75218,Dallas,TX,Dallas,32.8463,-96.6972
75219,Dallas,TX,Dallas,32.8132,-96.8142
75220,Dallas,TX,Dallas,32.8681,-96.8622
75221,Dallas,TX,Dallas,32.8147,-96.7877
75222,Dallas,TX,Dallas,32.7673,-96.7776
75223,Dallas,TX,Dallas,32.7942,-96.7475
75224,Dallas,TX,Dallas,32.7114,-96.8387
75225,Dallas,TX,Dallas,32.8628,-96.7918
75226,Dallas,TX,Dallas,32.7887,-96.7676
75227,Dallas,TX,Dallas,32.7672,-96.6836
75228,Dallas,TX,Dallas,32.825,-96.6784
75229,Dallas,TX,Dallas,32.8958,-96.8588
75230,Dallas,TX,Dallas,32.8999,-96.7897
75231,Dallas,TX,Dallas,32.8756,-96.7495
75232,Dallas,TX,Dallas,32.6647,-96.8384
75233,Dallas,TX,Dallas,32.7046,-96.8725
75234,Dallas,TX,Dallas,32.9245,-96.8938
75235,Dallas,TX,Dallas,32.8252,-96.8388
75236,Dallas,TX,Dallas,32.69,-96.9177
75237,Dallas,TX,Dallas,32.659,-96.8765
75238,Dallas,TX,Dallas,32.877,-96.708
75239,Dallas,TX,Dallas,32.7673,-96.7776
75240,Dallas,TX,Dallas,32.9374,-96.7872
75241,Dallas,TX,Dallas,32.6722,-96.7774
75242,Dallas,TX,Dallas,32.7673,-96.7776
75243,Dallas,TX,Dallas,32.9103,-96.7285
75244,Dallas,TX,Dallas,32.9322,-96.8353
75245,Dallas,TX,Dallas,32.9225,-96.5352
75246,Dallas,TX,Dallas,32.7948,-96.7697
75247,Dallas,TX,Dallas,32.8152,-96.8703
75248,Dallas,TX,Dallas,32.9682,-96.7942
75249,Dallas,TX,Dallas,32.636,-96.9493
75250,Dallas,TX,Dallas,32.7673,-96.7776
75251,Dallas,TX,Dallas,32.9189,-96.7751
75252,Dallas,TX,Dallas,32.9968,-96.7921
75253,Dallas,TX,Dallas,32.6833,-96.5964
75254,Dallas,TX,Yolo,32.9503,-96.819
75258,Dallas,TX,Dallas,32.7673,-96.7776
75260,Dallas,TX,Dallas,32.7673,-96.7776
75261,Dallas,TX,Dallas,32.7673,-96.7776
75262,Dallas,TX,Dallas,32.7673,-96.7776
75263,Dallas,TX,Dallas,32.7673,-96.7776
75264,Dallas,TX,Dallas,32.7673,-96.7776
75265,Dallas,TX,Dallas,32.7673,-96.7776
75266,Dallas,TX,Dallas,32.7673,-96.7776
75267,Dallas,TX,Dallas,32.7673,-96.7776
75270,Dallas,TX,Dallas,32.7813,-96.8019
75275,Dallas,TX,Dallas,32.7673,-96.7776
75277,Dallas,TX,Dallas,32.7673,-96.7776
75283,Dallas,TX,Dallas,32.7673,-96.7776
75284,Dallas,TX,Dallas,32.7673,-96.7776
75285,Dallas,TX,Dallas,32.7673,-96.7776
75286,Dallas,TX,Dallas,32.7673,-96.7776
75287,Dallas,TX,Dallas,33.0005,-96.8314
75294,Dallas,TX,Dallas,32.7673,-96.7776
75295,Dallas,TX,Dallas,32.7673,-96.7776
75301,Dallas,TX,Dallas,32.7673,-96.7776
75303,Dallas,TX,Dallas,32.7673,-96.7776
75310,Dallas,TX,Dallas,32.7673,-96.7776
75312,Dallas,TX,Dallas,32.7673,-96.7776
75313,Dallas,TX,Dallas,32.7673,-96.7776
75315,Dallas,TX,Dallas,32.7673,-96.7776
75320,Dallas,TX,Dallas,32.7673,-96.7776
75323,Dallas,TX,Dallas,32.7673,-96.7776
75326,Dallas,TX,Dallas,32.7673,-96.7776
75336,Dallas,TX,Dallas,32.7673,-96.7776
75339,Dallas,TX,Dallas,32.7673,-96.7776
75342,Dallas,TX,Dallas,32.7673,-96.7776
75346,Dallas,TX,Dallas,32.7673,-96.7776
75350,Dallas,TX,Dallas,32.7673,-96.7776
75353,Dallas,TX,Dallas,32.7673,-96.7776
75354,Dallas,TX,Dallas,32.7673,-96.7776
75355,Dallas,TX,Dallas,32.7673,-96.7776
75356,Dallas,TX,Dallas,32.7673,-96.7776
75357,Dallas,TX,Dallas,32.7673,-96.7776
75359,Dallas,TX,Dallas,32.7673,-96.7776
75360,Dallas,TX,Dallas,32.7673,-96.7776
75363,Dallas,TX,Dallas,32.7673,-96.7776
75364,Dallas,TX,Dallas,32.7673,-96.7776
75367,Dallas,TX,Dallas,32.7673,-96.7776
75368,Dallas,TX,Dallas,32.7673,-96.7776
75370,Dallas,TX,Dallas,32.7673,-96.7776
75371,Dallas,TX,Dallas,32.7673,-96.7776
75372,Dallas,TX,Dallas,32.7673,-96.7776
75373,Dallas,TX,Dallas,32.7673,-96.7776
75374,Dallas,TX,Dallas,32.7673,-96.7776
75376,Dallas,TX,Dallas,32.7673,-96.7776
75378,Dallas,TX,Dallas,32.7673,-96.7776
75379,Dallas,TX,Dallas,32.7673,-96.7776
75380,Dallas,TX,Dallas,32.7673,-96.7776
75381,Dallas,TX,Dallas,32.7673,-96.7776
75382,Dallas,TX,Dallas,32.7673,-96.7776
75386,Dallas,TX,Dallas,32.7673,-96.7776
75387,Dallas,TX,Dallas,32.7673,-96.7776
75388,Dallas,TX,Dallas,32.7673,-96.7776
75389,Dallas,TX,Dallas,32.7673,-96.7776
75390,Dallas,TX,Dallas,32.7673,-96.7776
75391,Dallas,TX,Dallas,32.7673,-96.7776
75392,Dallas,TX,Dallas,32.7673,-96.7776
75393,Dallas,TX,Dallas,32.7673,-96.7776
75394,Dallas,TX,Dallas,32.7673,-96.7776
75395,Dallas,TX,Dallas,32.7673,-96.7776
75396,Dallas,TX,Dallas,32.7673,-96.7776
75397,Dallas,TX,Dallas,32.7673,-96.7776
75398,Dallas,TX,Dallas,32.7673,-96.7776
79331,Lamesa,TX,Dawson,32.7367,-101.9569
79377,Welch,TX,Dawson,32.9298,-102.1278
79713,Ackerly,TX,Dawson,32.5273,-101.716
79025,Dawn,TX,Deaf Smith,34.9106,-102.2002
79045,Hereford,TX,Deaf Smith,34.837,-102.405
75415,Ben Franklin,TX,Delta,33.4741,-95.7591
75432,Cooper,TX,Delta,33.3812,-95.6623
75441,Enloe,TX,Delta,33.4291,-95.6518
75448,Klondike,TX,Delta,33.3034,-95.8018
75450,Lake Creek,TX,Delta,33.4116,-95.4551
75469,Pecan Gap,TX,Delta,33.4196,-95.8262
75007,Carrollton,TX,Denton,33.0033,-96.882
75008,Carrollton,TX,Denton,33.2074,-97.1163
75010,Carrollton,TX,Denton,33.0304,-96.8777
75022,Flower Mound,TX,Denton,33.0268,-97.1193
75027,Flower Mound,TX,Denton,33.2074,-97.1163
75028,Flower Mound,TX,Denton,33.0383,-97.0745
75029,Lewisville,TX,Denton,33.2074,-97.1163
75056,The Colony,TX,Denton,33.094,-96.8836
75057,Lewisville,TX,Denton,33.0532,-96.9999
75065,Lake Dallas,TX,Denton,33.1219,-97.0237
75067,Lewisville,TX,Denton,33.0198,-96.9925
75068,Little Elm,TX,Denton,33.1768,-96.9583
75077,Lewisville,TX,Denton,33.0775,-97.0704
76201,Denton,TX,Denton,33.2289,-97.1314
76202,Denton,TX,Denton,33.2255,-97.1085
76203,Denton,TX,Denton,33.2465,-97.127
76204,Denton,TX,Denton,33.2074,-97.1163
76205,Denton,TX,Denton,33.1801,-97.1018
76206,Denton,TX,Denton,33.1694,-97.1506
76207,Denton,TX,Denton,33.2296,-97.1617
76208,Denton,TX,Denton,33.2117,-97.0612
76209,Denton,TX,Fulton,33.2346,-97.1131
76210,Denton,TX,Fulton,33.1428,-97.0727
76226,Argyle,TX,Denton,33.1062,-97.16
76227,Aubrey,TX,Denton,33.292,-96.9879
76247,Justin,TX,Denton,33.0734,-97.3093
76249,Krum,TX,Denton,33.2734,-97.2675
76258,Pilot Point,TX,Denton,33.371,-96.9446
76259,Ponder,TX,Denton,33.1774,-97.2848
76262,Roanoke,TX,Denton,33.0211,-97.2127
76266,Sanger,TX,Denton,33.3563,-97.1814
76299,Roanoke,TX,Denton,33.2074,-97.1163
77954,Cuero,TX,DeWitt,29.091,-97.2812
77967,Hochheim,TX,DeWitt,29.0989,-97.3657
77974,Meyersville,TX,DeWitt,28.9229,-97.3042
77989,Thomaston,TX,DeWitt,28.9974,-97.1539
77994,Westhoff,TX,DeWitt,29.1792,-97.46
78141,Nordheim,TX,DeWitt,28.9142,-97.5946
78164,Yorktown,TX,DeWitt,28.9892,-97.5121
79220,Afton,TX,Dickens,33.7718,-100.8021
79229,Dickens,TX,Dickens,33.628,-100.8197
79243,Mcadoo,TX,Dickens,33.7413,-100.9833
79370,Spur,TX,Dickens,33.479,-100.8571
78827,Asherton,TX,Dimmit,28.4364,-99.7486
78830,Big Wells,TX,Dimmit,28.5693,-99.5781
78834,Carrizo Springs,TX,Dimmit,28.5278,-99.8635
78836,Catarina,TX,Dimmit,28.3598,-99.586
79226,Clarendon,TX,Donley,34.9529,-100.8952
79237,Hedley,TX,Donley,34.8698,-100.6806
79240,Lelia Lake,TX,Donley,34.8843,-100.7674
78341,Benavides,TX,Duval,27.5925,-98.4142
78349,Concepcion,TX,Duval,27.3849,-98.309
78357,Freer,TX,Duval,27.88,-98.6061
78376,Realitos,TX,Duval,27.3378,-98.5687
78384,San Diego,TX,Duval,27.7654,-98.2503
76435,Carbon,TX,Eastland,32.2701,-98.8348
76437,Cisco,TX,Eastland,32.38,-98.9865
76445,Desdemona,TX,Eastland,32.2819,-98.5673
76448,Eastland,TX,Eastland,32.3994,-98.8071
76454,Gorman,TX,Eastland,32.2234,-98.6834
76466,Olden,TX,Eastland,32.4421,-98.7342
76470,Ranger,TX,Eastland,32.4681,-98.6747
76471,Rising Star,TX,Eastland,32.128,-98.9859
79741,Goldsmith,TX,Ector,31.9541,-102.625
79758,Gardendale,TX,Ector,32.0245,-102.3572
79759,Notrees,TX,Ector,31.8599,-102.7413
79760,Odessa,TX,Ector,31.7652,-102.3543
79761,Odessa,TX,Ector,31.8579,-102.3523
79762,Odessa,TX,Ector,31.889,-102.3548
79763,Odessa,TX,Ector,31.8341,-102.4162
79764,Odessa,TX,Ector,31.8767,-102.4375
79765,Odessa,TX,Ector,31.9375,-102.3944
79766,Odessa,TX,Ector,31.7827,-102.3449
79768,Odessa,TX,Ector,31.8691,-102.5429
79769,Odessa,TX,Ector,31.7466,-102.567
79776,Penwell,TX,Ector,31.7334,-102.5879
76883,Telegraph,TX,Edwards,29.957,-100.2275
78828,Barksdale,TX,Edwards,29.8282,-100.105
78880,Rocksprings,TX,Edwards,30.0188,-100.231
75101,Bardwell,TX,Ellis,32.2731,-96.703
75119,Ennis,TX,Ellis,32.3321,-96.6224
75120,Ennis,TX,Ellis,32.3347,-96.6335
75125,Ferris,TX,Ellis,32.5223,-96.6643
75152,Palmer,TX,Ellis,32.4387,-96.6794
75154,Red Oak,TX,Ellis,32.5185,-96.8071
75155,Rice,TX,Ellis,32.2258,-96.4606
75165,Waxahachie,TX,Ellis,32.3808,-96.8374
75167,Waxahachie,TX,Ellis,32.3773,-96.9162
75168,Waxahachie,TX,Ellis,32.3749,-96.7166
76041,Forreston,TX,Ellis,32.2486,-96.8232
76064,Maypearl,TX,Ellis,32.2993,-97.027
76065,Midlothian,TX,Ellis,32.4757,-96.9936
76623,Avalon,TX,Ellis,32.2214,-96.7832
76651,Italy,TX,Ellis,32.1785,-96.8823
76670,Milford,TX,Ellis,32.1482,-96.9612
79821,Anthony,TX,El Paso,31.9907,-106.5976
79835,Canutillo,TX,El Paso,31.9344,-106.5929
79836,Clint,TX,El Paso,31.5494,-106.2038
79838,Fabens,TX,El Paso,31.4745,-106.1589
79849,San Elizario,TX,El Paso,31.5508,-106.2507
79853,Tornillo,TX,El Paso,31.4407,-106.0765
79901,El Paso,TX,El Paso,31.7584,-106.4783
79902,El Paso,TX,El Paso,31.7763,-106.4932
79903,El Paso,TX,El Paso,31.7862,-106.4406
79904,El Paso,TX,El Paso,31.8533,-106.4381
79905,El Paso,TX,El Paso,31.7674,-106.4304
79906,El Paso,TX,El Paso,31.8092,-106.4247
79907,El Paso,TX,El Paso,31.7089,-106.3293
79908,El Paso,TX,El Paso,31.8265,-106.3857
79910,El Paso,TX,El Paso,31.6948,-106.3
79911,El Paso,TX,El Paso,31.6948,-106.3
79912,El Paso,TX,El Paso,31.8383,-106.5364
79913,El Paso,TX,El Paso,31.9373,-106.5724
79914,El Paso,TX,El Paso,31.6948,-106.3
79915,El Paso,TX,El Paso,31.7432,-106.3686
79916,El Paso,TX,El Paso,31.7444,-106.2879
79917,El Paso,TX,El Paso,31.6948,-106.3
79918,El Paso,TX,El Paso,31.8318,-106.3907
79920,El Paso,TX,El Paso,31.8214,-106.4614
79922,El Paso,TX,El Paso,31.8218,-106.5732
79923,El Paso,TX,El Paso,31.6948,-106.3
79924,El Paso,TX,El Paso,31.9021,-106.4149
79925,El Paso,TX,El Paso,31.7814,-106.3613
79926,El Paso,TX,El Paso,31.6948,-106.3
79927,El Paso,TX,El Paso,31.6607,-106.1765
79928,El Paso,TX,Logan,31.6631,-106.1401
79929,El Paso,TX,El Paso,31.6948,-106.3
79930,El Paso,TX,El Paso,31.8048,-106.4568
79931,El Paso,TX,El Paso,31.6948,-106.3
79932,El Paso,TX,El Paso,31.8623,-106.5932
79934,El Paso,TX,El Paso,31.9386,-106.4073
79935,El Paso,TX,El Paso,31.7718,-106.3303
79936,El Paso,TX,El Paso,31.7677,-106.3016
79937,El Paso,TX,El Paso,31.6948,-106.3
79938,El Paso,TX,El Paso,31.8045,-105.9661
79940,El Paso,TX,El Paso,31.6948,-106.3
79941,El Paso,TX,El Paso,31.6948,-106.3
79942,El Paso,TX,El Paso,31.6948,-106.3
79943,El Paso,TX,El Paso,31.6948,-106.3
79944,El Paso,TX,El Paso,31.6948,-106.3
79945,El Paso,TX,El Paso,31.6948,-106.3
79946,El Paso,TX,El Paso,31.6948,-106.3
79947,El Paso,TX,El Paso,31.6948,-106.3
79948,El Paso,TX,El Paso,31.6948,-106.3
79949,El Paso,TX,El Paso,31.6948,-106.3
79950,El Paso,TX,El Paso,31.6948,-106.3
79951,El Paso,TX,El Paso,31.6948,-106.3
79952,El Paso,TX,El Paso,31.6948,-106.3
79953,El Paso,TX,El Paso,31.6948,-106.3
79954,El Paso,TX,El Paso,31.6948,-106.3
79955,El Paso,TX,El Paso,31.6948,-106.3
79958,El Paso,TX,El Paso,31.6948,-106.3
79960,El Paso,TX,El Paso,31.6948,-106.3
79961,El Paso,TX,El Paso,31.6948,-106.3
79966,El Paso,TX,El Paso,31.6948,-106.3
79968,El Paso,TX,El Paso,31.7705,-106.5048
79973,El Paso,TX,El Paso,31.6948,-106.3
79974,El Paso,TX,El Paso,31.6948,-106.3
79975,El Paso,TX,El Paso,31.6948,-106.3
79976,El Paso,TX,El Paso,31.6948,-106.3
79977,El Paso,TX,El Paso,31.6948,-106.3
79978,El Paso,TX,El Paso,31.7993,-106.3828
79980,El Paso,TX,El Paso,31.6948,-106.3
79982,El Paso,TX,El Paso,31.6948,-106.3
79983,El Paso,TX,El Paso,31.6948,-106.3
79984,El Paso,TX,El Paso,31.6948,-106.3
79985,El Paso,TX,El Paso,31.6948,-106.3
79986,El Paso,TX,El Paso,31.6948,-106.3
79987,El Paso,TX,El Paso,31.6948,-106.3
79988,El Paso,TX,El Paso,31.6948,-106.3
79989,El Paso,TX,El Paso,31.6948,-106.3
79990,El Paso,TX,El Paso,31.6948,-106.3
79991,El Paso,TX,El Paso,31.6948,-106.3
79992,El Paso,TX,El Paso,31.6948,-106.3
79993,El Paso,TX,El Paso,31.6948,-106.3
79994,El Paso,TX,El Paso,31.6948,-106.3
79995,El Paso,TX,El Paso,31.6948,-106.3
79996,El Paso,TX,El Paso,31.6948,-106.3
79997,El Paso,TX,El Paso,31.6948,-106.3
79998,El Paso,TX,El Paso,31.6948,-106.3
79999,El Paso,TX,El Paso,31.6948,-106.3
88510,El Paso,TX,El Paso,31.6948,-106.3
88511,El Paso,TX,El Paso,31.6948,-106.3
88512,El Paso,TX,El Paso,31.6948,-106.3
88513,El Paso,TX,El Paso,31.6948,-106.3
88514,El Paso,TX,El Paso,31.6948,-106.3
88515,El Paso,TX,El Paso,31.6948,-106.3
88516,El Paso,TX,El Paso,31.6948,-106.3
88517,El Paso,TX,El Paso,31.6948,-106.3
88518,El Paso,TX,El Paso,31.6948,-106.3
88519,El Paso,TX,El Paso,31.6948,-106.3
88520,El Paso,TX,El Paso,31.6948,-106.3
88521,El Paso,TX,El Paso,31.6948,-106.3
88523,El Paso,TX,El Paso,31.6948,-106.3
88524,El Paso,TX,El Paso,31.6948,-106.3
88525,El Paso,TX,El Paso,31.6948,-106.3
88526,El Paso,TX,El Paso,31.6948,-106.3
88527,El Paso,TX,El Paso,31.6948,-106.3
88528,El Paso,TX,El Paso,31.6948,-106.3
88529,El Paso,TX,El Paso,31.6948,-106.3
88530,El Paso,TX,El Paso,31.6948,-106.3
88531,El Paso,TX,El Paso,31.6948,-106.3
88532,El Paso,TX,El Paso,31.6948,-106.3
88533,El Paso,TX,El Paso,31.6948,-106.3
88534,El Paso,TX,El Paso,31.6948,-106.3
88535,El Paso,TX,El Paso,31.6948,-106.3
88536,El Paso,TX,El Paso,31.6948,-106.3
88538,El Paso,TX,El Paso,31.6948,-106.3
88539,El Paso,TX,El Paso,31.6948,-106.3
88540,El Paso,TX,El Paso,31.6948,-106.3
88541,El Paso,TX,El Paso,31.6948,-106.3
88542,El Paso,TX,El Paso,31.6948,-106.3
88543,El Paso,TX,El Paso,31.6948,-106.3
88544,El Paso,TX,El Paso,31.6948,-106.3
88545,El Paso,TX,El Paso,31.6948,-106.3
88546,El Paso,TX,El Paso,31.6948,-106.3
88547,El Paso,TX,El Paso,31.6948,-106.3
88548,El Paso,TX,El Paso,31.6948,-106.3
88549,El Paso,TX,El Paso,31.6948,-106.3
88550,El Paso,TX,El Paso,31.6948,-106.3
88553,El Paso,TX,El Paso,31.6948,-106.3
88554,El Paso,TX,El Paso,31.6948,-106.3
88555,El Paso,TX,El Paso,31.6948,-106.3
88556,El Paso,TX,El Paso,31.6948,-106.3
88557,El Paso,TX,El Paso,31.6948,-106.3
88558,El Paso,TX,El Paso,31.6948,-106.3
88559,El Paso,TX,El Paso,31.6948,-106.3
88560,El Paso,TX,El Paso,31.6948,-106.3
88561,El Paso,TX,El Paso,31.6948,-106.3
88562,El Paso,TX,El Paso,31.6948,-106.3
88563,El Paso,TX,El Paso,31.6948,-106.3
88565,El Paso,TX,El Paso,31.6948,-106.3
88566,El Paso,TX,El Paso,31.6948,-106.3
88567,El Paso,TX,El Paso,31.6948,-106.3
88568,El Paso,TX,El Paso,31.6948,-106.3
88569,El Paso,TX,El Paso,31.6948,-106.3
88570,El Paso,TX,El Paso,31.6948,-106.3
88571,El Paso,TX,El Paso,31.6948,-106.3
88572,El Paso,TX,El Paso,31.6948,-106.3
88573,El Paso,TX,El Paso,31.6948,-106.3
88574,El Paso,TX,El Paso,31.6948,-106.3
88575,El Paso,TX,El Paso,31.6948,-106.3
88576,El Paso,TX,El Paso,31.6948,-106.3
88577,El Paso,TX,El Paso,31.6948,-106.3
88578,El Paso,TX,El Paso,31.6948,-106.3
88579,El Paso,TX,El Paso,31.6948,-106.3
88580,El Paso,TX,El Paso,31.6948,-106.3
88581,El Paso,TX,El Paso,31.6948,-106.3
88582,El Paso,TX,El Paso,31.6948,-106.3
88583,El Paso,TX,El Paso,31.6948,-106.3
88584,El Paso,TX,El Paso,31.6948,-106.3
88585,El Paso,TX,El Paso,31.6948,-106.3
88586,El Paso,TX,El Paso,31.6948,-106.3
88587,El Paso,TX,El Paso,31.6948,-106.3
88588,El Paso,TX,El Paso,31.6948,-106.3
88589,El Paso,TX,El Paso,31.6948,-106.3
88590,El Paso,TX,El Paso,31.6948,-106.3
88595,El Paso,TX,El Paso,31.6948,-106.3
76401,Stephenville,TX,Erath,32.2214,-98.2224
76402,Stephenville,TX,Erath,32.2153,-98.208
76433,Bluff Dale,TX,Erath,32.2884,-98.0539
76446,Dublin,TX,Erath,32.0909,-98.3455
76461,Lingleville,TX,Erath,32.2214,-98.3428
76465,Morgan Mill,TX,Erath,32.2153,-98.208
76570,Rosebud,TX,Falls,31.0922,-96.9755
76632,Chilton,TX,Falls,31.31,-97.09
76656,Lott,TX,Falls,31.1925,-97.0581
76661,Marlin,TX,Falls,31.3036,-96.8889
76675,Otto,TX,Falls,31.4023,-96.8194
76677,Perry,TX,Falls,31.2542,-96.9376
76680,Reagan,TX,Falls,31.1871,-96.7998
76685,Satin,TX,Falls,31.3601,-97.0108
75413,Bailey,TX,Fannin,33.43,-96.1662
75418,Bonham,TX,Fannin,33.5806,-96.1836
75438,Dodd City,TX,Fannin,33.5647,-96.0619
75439,Ector,TX,Fannin,33.5819,-96.2735
75443,Gober,TX,Fannin,33.4697,-96.1111
75446,Honey Grove,TX,Fannin,33.5985,-95.9109
75447,Ivanhoe,TX,Fannin,33.7612,-96.1193
75449,Ladonia,TX,Fannin,33.4245,-95.9455
75452,Leonard,TX,Fannin,33.4044,-96.2238
75475,Randolph,TX,Fannin,33.4846,-96.2541
75476,Ravenna,TX,Fannin,33.7098,-96.1452
75479,Savoy,TX,Fannin,33.6066,-96.3502
75488,Telephone,TX,Fannin,33.7979,-96.0449
75490,Trenton,TX,Fannin,33.4235,-96.3398
75492,Windom,TX,Fannin,33.5633,-96.002
78932,Carmine,TX,Fayette,30.1404,-96.6861
78938,Ellinger,TX,Fayette,29.8459,-96.6966
78940,Fayetteville,TX,Fayette,29.8868,-96.6463
78941,Flatonia,TX,Fayette,29.7095,-97.0987
78945,La Grange,TX,Fayette,29.904,-96.886
78946,Ledbetter,TX,Fayette,30.2383,-96.7613
78949,Muldoon,TX,Fayette,29.7993,-97.1006
78952,Plum,TX,Fayette,29.8962,-96.9439
78954,Round Top,TX,Fayette,30.0411,-96.7341
78956,Schulenburg,TX,Fayette,29.6882,-96.9106
78960,Warda,TX,Fayette,30.0702,-96.902
78961,Round Top,TX,Fayette,29.6655,-97.0397
78963,West Point,TX,Fayette,29.9524,-97.0361
79534,Mc Caulley,TX,Fisher,32.7787,-100.2168
79543,Roby,TX,Fisher,32.722,-100.4008
79546,Rotan,TX,Fisher,32.8555,-100.4705
79560,Sylvester,TX,Fisher,32.6946,-100.1706
79221,Aiken,TX,Floyd,34.0715,-101.3031
79231,Dougherty,TX,Floyd,33.9446,-101.0922
79235,Floydada,TX,Floyd,33.9743,-101.3346
79241,Lockney,TX,Floyd,34.1458,-101.4259
79258,South Plains,TX,Floyd,34.0715,-101.3031
79227,Crowell,TX,Foard,33.9912,-99.6983
77406,Richmond,TX,Fort Bend,29.504,-95.9191
77417,Beasley,TX,Fort Bend,29.479,-95.9681
77441,Fulshear,TX,Fort Bend,29.7217,-95.8977
77444,Guy,TX,Fort Bend,29.3327,-95.7702
77451,Kendleton,TX,Fort Bend,29.447,-96.0036
77459,Missouri City,TX,Fort Bend,29.5704,-95.5423
77461,Needville,TX,Fort Bend,29.4116,-95.8273
77464,Orchard,TX,Fort Bend,29.5948,-95.9727
77469,Richmond,TX,Fort Bend,29.5511,-95.7329
77471,Rosenberg,TX,Fort Bend,29.5497,-95.7982
77476,Simonton,TX,Fort Bend,29.6777,-95.9922
77477,Stafford,TX,Fort Bend,29.6228,-95.5678
77478,Sugar Land,TX,Fort Bend,29.6342,-95.6219
77479,Sugar Land,TX,Fort Bend,29.5785,-95.6066
77481,Thompsons,TX,Fort Bend,29.4683,-95.5776
77487,Sugar Land,TX,Fort Bend,29.5255,-95.7565
77489,Missouri City,TX,Fort Bend,29.5962,-95.5115
77496,Sugar Land,TX,Fort Bend,29.5255,-95.7565
77497,Stafford,TX,Fort Bend,29.5255,-95.7565
77545,Fresno,TX,Fort Bend,29.5293,-95.4626
75457,Mount Vernon,TX,Franklin,33.1702,-95.2181
75480,Scroggins,TX,Franklin,33.0478,-95.1962
75487,Talco,TX,Franklin,33.3344,-95.0497
75838,Donie,TX,Freestone,31.4873,-96.2387
75840,Fairfield,TX,Freestone,31.7361,-96.1572
75848,Kirvin,TX,Freestone,31.8231,-96.3218
75859,Streetman,TX,Freestone,31.8885,-96.2988
75860,Teague,TX,Freestone,31.6328,-96.2778
76693,Wortham,TX,Freestone,31.7865,-96.4202
78005,Bigfoot,TX,Frio,29.0531,-98.8582
78017,Dilley,TX,Frio,28.6782,-99.1747
78057,Moore,TX,Frio,29.0595,-99.0204
78061,Pearsall,TX,Frio,28.8923,-99.0944
79342,Loop,TX,Gaines,32.9162,-102.4221
79359,Seagraves,TX,Gaines,32.9317,-102.5781
79360,Seminole,TX,Gaines,32.721,-102.6828
77510,Santa Fe,TX,Galveston,29.4032,-95.0734
77517,Santa Fe,TX,Galveston,29.3673,-95.1361
77518,Bacliff,TX,Galveston,29.5055,-94.9893
77539,Dickinson,TX,Galveston,29.4585,-95.0345
77546,Friendswood,TX,Galveston,29.5224,-95.1879
77549,Friendswood,TX,Galveston,29.3305,-94.8002
77550,Galveston,TX,Galveston,29.2983,-94.793
77551,Galveston,TX,Galveston,29.2766,-94.8303
77552,Galveston,TX,Galveston,29.2205,-94.9444
77553,Galveston,TX,Galveston,29.3322,-94.8002
77554,Galveston,TX,Galveston,29.2243,-94.9637
77555,Galveston,TX,Galveston,29.3305,-94.8002
77563,Hitchcock,TX,Galveston,29.3398,-94.9926
77565,Kemah,TX,Galveston,29.5236,-95.0276
77568,La Marque,TX,Galveston,29.3676,-94.9742
77573,League City,TX,Galveston,29.5173,-95.0963
77574,League City,TX,Galveston,29.5116,-95.0582
77590,Texas City,TX,Galveston,29.397,-94.9203
77591,Texas City,TX,Galveston,29.3891,-94.9942
77592,Texas City,TX,Galveston,29.3305,-94.8002
77617,Gilchrist,TX,Galveston,29.523,-94.4755
77623,High Island,TX,Galveston,29.5472,-94.4267
77650,Port Bolivar,TX,Galveston,29.4548,-94.6954
79330,Justiceburg,TX,Garza,33.0594,-101.1881
79356,Post,TX,Garza,33.2017,-101.3922
78618,Doss,TX,Gillespie,30.4613,-99.1707
78624,Fredericksburg,TX,Gillespie,30.2817,-98.8799
78631,Harper,TX,Gillespie,30.2816,-99.241
78671,Stonewall,TX,Gillespie,30.2088,-98.6131
78675,Willow City,TX,Gillespie,30.4549,-98.6646
79739,Garden City,TX,Glasscock,31.8491,-101.5269
77960,Fannin,TX,Goliad,28.6778,-97.2606
77963,Goliad,TX,Goliad,28.6993,-97.3783
77993,Weesatche,TX,Goliad,28.8358,-97.4442
78107,Berclair,TX,Goliad,28.5295,-97.5925
78122,Leesville,TX,Gonzales,29.3961,-97.7566
78140,Nixon,TX,Gonzales,29.3016,-97.7529
78159,Smiley,TX,Gonzales,29.2655,-97.6227
78603,Bebe,TX,Gonzales,29.4472,-97.4946
78604,Belmont,TX,Gonzales,29.4472,-97.4946
78614,Cost,TX,Gonzales,29.4321,-97.5531
78629,Gonzales,TX,Gonzales,29.5086,-97.4495
78632,Harwood,TX,Gonzales,29.6661,-97.4906
78658,Ottine,TX,Gonzales,29.5952,-97.5911
78677,Wrightsboro,TX,Gonzales,29.4472,-97.4946
78959,Waelder,TX,Gonzales,29.6868,-97.2958
79002,Alanreed,TX,Gray,35.2273,-100.7592
79054,Lefors,TX,Gray,35.4391,-100.8059
79057,Mclean,TX,Gray,35.2312,-100.6008
79065,Pampa,TX,Gray,35.538,-100.9579
79066,Pampa,TX,Gray,35.5334,-100.956
75020,Denison,TX,Grayson,33.745,-96.5496
75021,Denison,TX,Grayson,33.7169,-96.5235
75058,Gunter,TX,Grayson,33.4495,-96.7341
75076,Pottsboro,TX,Grayson,33.8095,-96.6906
75090,Sherman,TX,Grayson,33.6435,-96.6075
75091,Sherman,TX,Grayson,33.6787,-96.6623
75092,Sherman,TX,Grayson,33.6372,-96.6184
75414,Bells,TX,Grayson,33.6178,-96.4237
75459,Howe,TX,Grayson,33.5349,-96.6407
75489,Tom Bean,TX,Grayson,33.5297,-96.4836
75491,Whitewright,TX,Grayson,33.519,-96.451
75495,Van Alstyne,TX,Grayson,33.4292,-96.5486
76233,Collinsville,TX,Grayson,33.558,-96.9014
76245,Gordonville,TX,Grayson,33.8343,-96.8403
76264,Sadler,TX,Grayson,33.731,-96.84
76268,Southmayd,TX,Grayson,33.6153,-96.7618
76271,Tioga,TX,Grayson,33.4675,-96.9097
76273,Whitesboro,TX,Grayson,33.659,-96.879
75601,Longview,TX,Gregg,32.5178,-94.7303
75602,Longview,TX,Gregg,32.4724,-94.7101
75603,Longview,TX,Gregg,32.4264,-94.7117
75604,Longview,TX,Gregg,32.5251,-94.799
75605,Longview,TX,Gregg,32.5547,-94.7767
75606,Longview,TX,Gregg,32.3694,-94.6161
75607,Longview,TX,Gregg,32.5112,-94.7835
75608,Longview,TX,Gregg,32.5701,-94.8481
75615,Longview,TX,Gregg,32.5112,-94.7835
75641,Easton,TX,Gregg,32.3854,-94.5515
75647,Gladewater,TX,Gregg,32.5559,-94.932
75660,Judson,TX,Gregg,32.5112,-94.7835
75662,Kilgore,TX,Gregg,32.3836,-94.8653
75663,Kilgore,TX,Gregg,32.387,-94.8951
75693,White Oak,TX,Gregg,32.5383,-94.8622
77363,Plantersville,TX,Grimes,30.2969,-95.8498
77830,Anderson,TX,Grimes,30.5443,-96.0018
77831,Bedias,TX,Grimes,30.7065,-95.9546
77861,Iola,TX,Grimes,30.7326,-96.0911
77868,Navasota,TX,Grimes,30.3576,-96.0594
77873,Richards,TX,Grimes,30.5796,-95.8959
77875,Roans Prairie,TX,Grimes,30.6075,-95.9579
77876,Shiro,TX,Grimes,30.6752,-95.8285
78108,Cibolo,TX,Guadalupe,29.575,-98.228
78115,Geronimo,TX,Guadalupe,29.5451,-98.0408
78123,Mc Queeney,TX,Guadalupe,29.6023,-98.0492
78124,Marion,TX,Guadalupe,29.5684,-98.1517
78154,Schertz,TX,Guadalupe,29.579,-98.2778
78155,Seguin,TX,Guadalupe,29.5613,-97.9628
78156,Seguin,TX,Guadalupe,29.6118,-97.9712
78638,Kingsbury,TX,Guadalupe,29.6726,-97.8306
78670,Staples,TX,Guadalupe,29.7706,-97.8186
79021,Cotton Center,TX,Hale,33.9753,-102.0314
79032,Edmonson,TX,Hale,34.2789,-101.8941
79041,Hale Center,TX,Hale,34.0669,-101.8736
79072,Plainview,TX,Hale,34.1962,-101.7259
79073,Plainview,TX,Hale,34.0689,-101.827
79250,Petersburg,TX,Hale,33.8768,-101.6046
79311,Abernathy,TX,Hale,33.85,-101.8611
79233,Estelline,TX,Hall,34.5303,-100.4455
79239,Lakeview,TX,Hall,34.6724,-100.7259
79245,Memphis,TX,Hall,34.7122,-100.5347
79261,Turkey,TX,Hall,34.4036,-100.8449
76436,Carlton,TX,Hamilton,31.8949,-98.1842
76457,Hico,TX,Hamilton,31.9597,-98.0249
76531,Hamilton,TX,Hamilton,31.6781,-98.1131
76565,Pottsville,TX,Hamilton,31.6837,-98.3561
79040,Gruver,TX,Hansford,36.2868,-101.4089
79062,Morse,TX,Hansford,36.0596,-101.4729
79081,Spearman,TX,Hansford,36.1927,-101.1952
79225,Chillicothe,TX,Hardeman,34.2439,-99.5157
79252,Quanah,TX,Hardeman,34.2956,-99.7494
77374,Thicket,TX,Hardin,30.3765,-94.6361
77376,Votaw,TX,Hardin,30.4334,-94.6804
77519,Batson,TX,Hardin,30.225,-94.6096
77585,Saratoga,TX,Hardin,30.3398,-94.5717
77625,Kountze,TX,Hardin,30.3703,-94.3259
77656,Silsbee,TX,Hardin,30.3244,-94.1907
77657,Lumberton,TX,Hardin,30.2818,-94.2191
77659,Sour Lake,TX,Hardin,30.1491,-94.3733
77663,Village Mills,TX,Hardin,30.5185,-94.4458
77001,Houston,TX,Harris,29.8131,-95.3098
77002,Houston,TX,Harris,29.7594,-95.3594
77003,Houston,TX,Harris,29.7489,-95.3391
77004,Houston,TX,Harris,29.7247,-95.3625
77005,Houston,TX,Harris,29.7179,-95.4263
77006,Houston,TX,Harris,29.7409,-95.3923
77007,Houston,TX,Harris,29.7736,-95.4034
77008,Houston,TX,Harris,29.7991,-95.4118
77009,Houston,TX,Harris,29.7936,-95.3675
77010,Houston,TX,Harris,29.7543,-95.3609
77011,Houston,TX,Harris,29.742,-95.3073
77012,Houston,TX,Harris,29.7149,-95.2819
77013,Houston,TX,Harris,29.7842,-95.2301
77014,Houston,TX,Harris,29.9796,-95.4625
77015,Houston,TX,Harris,29.7853,-95.1852
77016,Houston,TX,Harris,29.8579,-95.3032
77017,Houston,TX,Harris,29.6863,-95.2555
77018,Houston,TX,Harris,29.8272,-95.4266
77019,Houston,TX,Harris,29.7517,-95.4054
77020,Houston,TX,Harris,29.7758,-95.3121
77021,Houston,TX,Harris,29.6954,-95.3562
77022,Houston,TX,Harris,29.8299,-95.3769
77023,Houston,TX,Harris,29.7242,-95.3178
77024,Houston,TX,Harris,29.7696,-95.5201
77025,Houston,TX,Harris,29.6889,-95.4341
77026,Houston,TX,Harris,29.7972,-95.3288
77027,Houston,TX,Harris,29.7396,-95.446
77028,Houston,TX,Harris,29.8297,-95.2879
77029,Houston,TX,Harris,29.763,-95.2567
77030,Houston,TX,Harris,29.7041,-95.401
77031,Houston,TX,Harris,29.6581,-95.5413
77032,Houston,TX,Harris,29.9368,-95.3299
77033,Houston,TX,Harris,29.6686,-95.3382
77034,Houston,TX,Harris,29.6364,-95.2216
77035,Houston,TX,Harris,29.6518,-95.4854
77036,Houston,TX,Harris,29.6984,-95.5405
77037,Houston,TX,Harris,29.8892,-95.3935
77038,Houston,TX,Harris,29.9196,-95.4386
77039,Houston,TX,Harris,29.9067,-95.3334
77040,Houston,TX,Harris,29.8957,-95.5861
77041,Houston,TX,Harris,29.8602,-95.5817
77042,Houston,TX,Harris,29.7404,-95.5589
77043,Houston,TX,Harris,29.8052,-95.5607
77044,Houston,TX,Harris,29.8635,-95.1976
77045,Houston,TX,Harris,29.6297,-95.4382
77046,Houston,TX,Harris,29.733,-95.4306
77047,Houston,TX,Harris,29.6254,-95.375
77048,Houston,TX,Harris,29.6321,-95.3416
77049,Houston,TX,Harris,29.8235,-95.1848
77050,Houston,TX,Harris,29.9015,-95.2848
77051,Houston,TX,Harris,29.6579,-95.3688
77052,Houston,TX,Harris,29.6768,-95.1776
77053,Houston,TX,Harris,29.5962,-95.4587
77054,Houston,TX,Harris,29.6852,-95.4017
77055,Houston,TX,Harris,29.7971,-95.4958
77056,Houston,TX,Harris,29.7446,-95.4683
77057,Houston,TX,Harris,29.7422,-95.4903
77058,Houston,TX,Harris,29.5716,-95.0998
77059,Houston,TX,Harris,29.5975,-95.1134
77060,Houston,TX,Harris,29.9335,-95.3981
77061,Houston,TX,Harris,29.6652,-95.279
77062,Houston,TX,Harris,29.5721,-95.1303
77063,Houston,TX,Harris,29.7348,-95.522
77064,Houston,TX,Harris,29.919,-95.5569
77065,Houston,TX,Harris,29.9319,-95.6106
77066,Houston,TX,Harris,29.961,-95.4947
77067,Houston,TX,Harris,29.9547,-95.4522
77068,Houston,TX,Harris,30.0069,-95.4897
77069,Houston,TX,Harris,29.9863,-95.5208
77070,Houston,TX,Harris,29.9781,-95.5803
77071,Houston,TX,Harris,29.6518,-95.5176
77072,Houston,TX,Harris,29.699,-95.5862
77073,Houston,TX,Harris,30.0198,-95.4087
77074,Houston,TX,Harris,29.6896,-95.5106
77075,Houston,TX,Harris,29.6223,-95.26
77076,Houston,TX,Harris,29.858,-95.3834
77077,Houston,TX,Harris,29.7477,-95.603
77078,Houston,TX,Harris,29.8497,-95.2582
77079,Houston,TX,Harris,29.7738,-95.598
77080,Houston,TX,Harris,29.8159,-95.523
77081,Houston,TX,Harris,29.7119,-95.4845
77082,Houston,TX,Harris,29.7223,-95.6285
77083,Houston,TX,Harris,29.6947,-95.6511
77084,Houston,TX,Harris,29.844,-95.6623
77085,Houston,TX,Harris,29.6218,-95.4819
77086,Houston,TX,Harris,29.9227,-95.4939
77087,Houston,TX,Harris,29.6876,-95.3011
77088,Houston,TX,Harris,29.8817,-95.4539
77089,Houston,TX,Harris,29.594,-95.2218
77090,Houston,TX,Harris,30.0167,-95.447
77091,Houston,TX,Harris,29.8534,-95.4435
77092,Houston,TX,Harris,29.8324,-95.472
77093,Houston,TX,Harris,29.8617,-95.3403
77094,Houston,TX,Harris,29.7705,-95.7107
77095,Houston,TX,Harris,29.8941,-95.6481
77096,Houston,TX,Harris,29.6722,-95.4861
77097,Houston,TX,Harris,29.834,-95.4342
77098,Houston,TX,Harris,29.735,-95.4118
77099,Houston,TX,Harris,29.6709,-95.5866
77201,Houston,TX,Harris,29.834,-95.4342
77202,Houston,TX,Harris,29.834,-95.4342
77203,Houston,TX,Harris,29.834,-95.4342
77204,Houston,TX,Harris,29.834,-95.4342
77205,Houston,TX,Harris,29.834,-95.4342
77206,Houston,TX,Harris,29.834,-95.4342
77207,Houston,TX,Harris,29.834,-95.4342
77208,Houston,TX,Harris,29.834,-95.4342
77209,Houston,TX,Harris,29.6128,-95.1585
77210,Houston,TX,Harris,29.834,-95.4342
77212,Houston,TX,Harris,29.834,-95.4342
77213,Houston,TX,Harris,29.834,-95.4342
77215,Houston,TX,Harris,29.834,-95.4342
77216,Houston,TX,Harris,29.834,-95.4342
77217,Houston,TX,Harris,29.834,-95.4342
77218,Houston,TX,Harris,29.834,-95.4342
77219,Houston,TX,Harris,29.834,-95.4342
77220,Houston,TX,Harris,29.834,-95.4342
77221,Houston,TX,Harris,29.834,-95.4342
77222,Houston,TX,Harris,29.834,-95.4342
77223,Houston,TX,Harris,29.834,-95.4342
77224,Houston,TX,Harris,29.834,-95.4342
77225,Houston,TX,Harris,29.834,-95.4342
77226,Houston,TX,Harris,29.834,-95.4342
77227,Houston,TX,Harris,29.834,-95.4342
77228,Houston,TX,Harris,29.834,-95.4342
77229,Houston,TX,Harris,29.834,-95.4342
77230,Houston,TX,Harris,29.834,-95.4342
77231,Houston,TX,Harris,29.834,-95.4342
77233,Houston,TX,Harris,29.834,-95.4342
77234,Houston,TX,Harris,29.834,-95.4342
77235,Houston,TX,Harris,29.834,-95.4342
77236,Houston,TX,Harris,29.834,-95.4342
77237,Houston,TX,Harris,29.834,-95.4342
77238,Houston,TX,Harris,29.834,-95.4342
77240,Houston,TX,Harris,29.834,-95.4342
77241,Houston,TX,Harris,29.834,-95.4342
77242,Houston,TX,Harris,29.834,-95.4342
77243,Houston,TX,Harris,29.834,-95.4342
77244,Houston,TX,Harris,29.834,-95.4342
77245,Houston,TX,Harris,29.834,-95.4342
77248,Houston,TX,Harris,29.834,-95.4342
77249,Houston,TX,Harris,29.834,-95.4342
77251,Houston,TX,Harris,29.834,-95.4342
77252,Houston,TX,Harris,29.834,-95.4342
77253,Houston,TX,Harris,29.834,-95.4342
77254,Houston,TX,Harris,29.834,-95.4342
77255,Houston,TX,Harris,29.834,-95.4342
77256,Houston,TX,Harris,29.834,-95.4342
77257,Houston,TX,Harris,29.834,-95.4342
77258,Houston,TX,Harris,29.834,-95.4342
77259,Houston,TX,Harris,29.834,-95.4342
77261,Houston,TX,Harris,29.834,-95.4342
77262,Houston,TX,Harris,29.834,-95.4342
77263,Houston,TX,Harris,29.834,-95.4342
77265,Houston,TX,Harris,29.834,-95.4342
77266,Houston,TX,Harris,29.834,-95.4342
77267,Houston,TX,Harris,29.834,-95.4342
77268,Houston,TX,Harris,29.834,-95.4342
77269,Houston,TX,Harris,29.834,-95.4342
77270,Houston,TX,Harris,29.834,-95.4342
77271,Houston,TX,Harris,29.834,-95.4342
77272,Houston,TX,Harris,29.834,-95.4342
77273,Houston,TX,Harris,29.834,-95.4342
77274,Houston,TX,Harris,29.834,-95.4342
77275,Houston,TX,Harris,29.834,-95.4342
77277,Houston,TX,Harris,29.834,-95.4342
77279,Houston,TX,Harris,29.834,-95.4342
77280,Houston,TX,Harris,29.834,-95.4342
77281,Houston,TX,Harris,29.834,-95.4342
77282,Houston,TX,Harris,29.834,-95.4342
77284,Houston,TX,Harris,29.834,-95.4342
77287,Houston,TX,Harris,29.834,-95.4342
77288,Houston,TX,Harris,29.834,-95.4342
77289,Houston,TX,Harris,29.834,-95.4342
77290,Houston,TX,Harris,29.834,-95.4342
77291,Houston,TX,Harris,29.834,-95.4342
77292,Houston,TX,Harris,29.7443,-95.3326
77293,Houston,TX,Harris,29.834,-95.4342
77297,Houston,TX,Harris,29.834,-95.4342
77298,Houston,TX,Harris,29.834,-95.4342
77299,Houston,TX,Harris,29.834,-95.4342
77315,North Houston,TX,Harris,29.834,-95.4342
77325,Humble,TX,Harris,29.834,-95.4342
77336,Huffman,TX,Harris,30.0565,-95.1051
77337,Hufsmith,TX,Harris,29.834,-95.4342
77338,Humble,TX,Harris,30.0041,-95.2825
77339,Humble,TX,Harris,30.0563,-95.2107
77345,Humble,TX,Harris,30.0566,-95.1707
77346,Humble,TX,Harris,30.0042,-95.1728
77347,Humble,TX,Harris,29.834,-95.4342
77373,Spring,TX,Harris,30.0532,-95.3773
77375,Tomball,TX,Harris,30.0739,-95.6201
77377,Tomball,TX,Harris,29.834,-95.4342
77379,Spring,TX,Harris,30.0377,-95.5326
77382,Spring,TX,Harris,30.2106,-95.5257
77383,Spring,TX,Harris,29.834,-95.4342
77388,Spring,TX,Harris,30.0505,-95.4695
77389,Spring,TX,Harris,30.1044,-95.5066
77391,Spring,TX,Harris,29.834,-95.4342
77396,Humble,TX,Harris,29.9507,-95.2622
77401,Bellaire,TX,Harris,29.7023,-95.4611
77402,Bellaire,TX,Harris,29.834,-95.4342
77410,Cypress,TX,Harris,29.834,-95.4342
77411,Alief,TX,Harris,29.834,-95.4342
77413,Barker,TX,Harris,29.834,-95.4342
77429,Cypress,TX,Harris,29.9766,-95.6358
77433,Cypress,TX,Harris,29.8836,-95.7025
77447,Hockley,TX,Harris,30.0729,-95.8104
77449,Katy,TX,Harris,29.8323,-95.736
77450,Katy,TX,Harris,29.745,-95.7326
77491,Katy,TX,Harris,29.834,-95.4342
77492,Katy,TX,Harris,29.834,-95.4342
77493,Katy,TX,Harris,29.8678,-95.8298
77494,Katy,TX,Harris,29.7404,-95.8304
77501,Pasadena,TX,Harris,29.834,-95.4342
77502,Pasadena,TX,Harris,29.6789,-95.1982
77503,Pasadena,TX,Harris,29.6877,-95.1572
77504,Pasadena,TX,Harris,29.6501,-95.1885
77505,Pasadena,TX,Harris,29.6518,-95.1464
77506,Pasadena,TX,Harris,29.7009,-95.199
77507,Pasadena,TX,Harris,29.6224,-95.0545
77508,Pasadena,TX,Harris,29.5699,-95.1066
77520,Baytown,TX,Harris,29.7461,-94.9653
77521,Baytown,TX,Harris,29.7705,-94.9695
77522,Baytown,TX,Harris,29.834,-95.4342
77530,Channelview,TX,Harris,29.7914,-95.1317
77532,Crosby,TX,Harris,29.9249,-95.0578
77536,Deer Park,TX,Harris,29.6826,-95.1222
77547,Galena Park,TX,Harris,29.7392,-95.24
77562,Highlands,TX,Harris,29.8296,-95.0393
77571,La Porte,TX,Harris,29.6884,-95.0513
77572,La Porte,TX,Harris,29.834,-95.4342
77586,Seabrook,TX,Harris,29.5832,-95.037
77587,South Houston,TX,Harris,29.6601,-95.2258
77598,Webster,TX,Harris,29.5564,-95.144
75642,Elysian Fields,TX,Harrison,32.3863,-94.2105
75650,Hallsville,TX,Harrison,32.5073,-94.5333
75651,Harleton,TX,Harrison,32.6579,-94.4652
75659,Jonesville,TX,Harrison,32.5075,-94.1106
75661,Karnack,TX,Harrison,32.6205,-94.2
75670,Marshall,TX,Harrison,32.5338,-94.3619
75671,Marshall,TX,Harrison,32.5227,-94.3895
75672,Marshall,TX,Harrison,32.5165,-94.3251
75688,Scottsville,TX,Harrison,32.554,-94.2394
75692,Waskom,TX,Harrison,32.5184,-94.1355
75694,Woodlawn,TX,Harrison,32.6537,-94.3427
79018,Channing,TX,Hartley,35.7826,-102.3343
79044,Hartley,TX,Hartley,35.9311,-102.5221
76388,Weinert,TX,Haskell,33.3249,-99.6664
79521,Haskell,TX,Haskell,33.158,-99.7309
79539,O Brien,TX,Haskell,33.3749,-99.8473
79544,Rochester,TX,Haskell,33.3105,-99.8594
79547,Rule,TX,Haskell,33.1842,-99.8894
79548,Rule,TX,Haskell,33.0771,-99.959
78610,Buda,TX,Hays,30.0918,-97.8534
78619,Driftwood,TX,Hays,30.1072,-98.0327
78620,Dripping Springs,TX,Hays,30.2268,-98.1029
78640,Kyle,TX,Hays,29.9966,-97.8335
78666,San Marcos,TX,Hays,29.8754,-97.9404
78667,San Marcos,TX,Hays,30.0544,-98.0036
78676,Wimberley,TX,Hays,30.0265,-98.1123
79014,Canadian,TX,Hemphill,35.9045,-100.3841
75124,Eustace,TX,Henderson,32.2965,-96.0137
75143,Kemp,TX,Henderson,32.2486,-96.2161
75148,Malakoff,TX,Henderson,32.1705,-96.006
75163,Trinidad,TX,Henderson,32.1383,-96.0831
75751,Athens,TX,Henderson,32.1935,-95.8432
75752,Athens,TX,Henderson,32.2151,-95.79
75756,Brownsboro,TX,Henderson,32.2328,-95.5757
75758,Chandler,TX,Henderson,32.2572,-95.5393
75770,Larue,TX,Henderson,32.1608,-95.5927
75778,Murchison,TX,Henderson,32.3257,-95.7737
75782,Poynor,TX,Henderson,32.0797,-95.5938
78501,Mcallen,TX,Hidalgo,26.2154,-98.2359
78502,Mcallen,TX,Hidalgo,26.2567,-98.1989
78503,Mcallen,TX,Hidalgo,26.1771,-98.252
78504,Mcallen,TX,Hidalgo,26.2556,-98.2303
78505,Mcallen,TX,Hidalgo,26.4097,-98.2242
78516,Alamo,TX,Hidalgo,26.1906,-98.1164
78537,Donna,TX,Hidalgo,26.1671,-98.0529
78538,Edcouch,TX,Hidalgo,26.3328,-97.9622
78539,Edinburg,TX,Hidalgo,26.3042,-98.1569
78540,Edinburg,TX,Hidalgo,26.3194,-98.1909
78543,Elsa,TX,Hidalgo,26.2974,-97.9884
78549,Hargill,TX,Hidalgo,26.4671,-98.0393
78557,Hidalgo,TX,Hidalgo,26.1028,-98.2536
78558,La Blanca,TX,Hidalgo,26.3125,-98.0335
78560,La Joya,TX,Hidalgo,26.2426,-98.4747
78562,La Villa,TX,Hidalgo,26.2999,-97.9247
78563,Linn,TX,Hidalgo,26.6279,-98.2498
78565,Los Ebanos,TX,Hidalgo,26.246,-98.5553
78570,Mercedes,TX,Hidalgo,26.1513,-97.9185
78572,Mission,TX,Hidalgo,26.2644,-98.3909
78573,Mission,TX,Hidalgo,26.4097,-98.2242
78576,Penitas,TX,Hidalgo,26.278,-98.4469
78577,Pharr,TX,Hidalgo,26.1771,-98.187
78579,Progreso,TX,Hidalgo,26.0922,-97.9533
78589,San Juan,TX,Hidalgo,26.2044,-98.1537
78595,Sullivan City,TX,Hidalgo,26.272,-98.5627
78596,Weslaco,TX,Hidalgo,26.1694,-97.9887
78599,Weslaco,TX,Hidalgo,26.4097,-98.2242
76055,Itasca,TX,Hill,32.1636,-97.146
76621,Abbott,TX,Hill,31.8916,-97.0671
76622,Aquilla,TX,Hill,31.8589,-97.2258
76627,Blum,TX,Hill,32.1052,-97.3652
76628,Brandon,TX,Hill,32.0544,-96.9756
76631,Bynum,TX,Hill,31.9907,-96.9837
76636,Covington,TX,Hill,32.1595,-97.2591
76645,Hillsboro,TX,Hill,32.0149,-97.1198
76648,Hubbard,TX,Hill,31.8436,-96.8
76650,Irene,TX,Hill,31.9872,-97.1081
76660,Malone,TX,Hill,31.924,-96.8907
76666,Mertens,TX,Hill,32.0275,-96.8981
76673,Mount Calm,TX,Hill,31.7575,-96.8944
76676,Penelope,TX,Hill,31.8551,-96.9372
76692,Whitney,TX,Hill,31.9713,-97.3463
79313,Anton,TX,Hockley,33.8043,-102.1652
79336,Levelland,TX,Hockley,33.5788,-102.3676
79338,Levelland,TX,Hockley,33.5932,-102.3627
79353,Pep,TX,Hockley,33.8104,-102.5656
79358,Ropesville,TX,Hockley,33.4575,-102.1584
79367,Smyer,TX,Hockley,33.5918,-102.1692
79372,Sundown,TX,Hockley,33.4482,-102.4898
79380,Whitharral,TX,Hockley,33.7354,-102.3419
76035,Cresson,TX,Hood,32.5343,-97.6158
76048,Granbury,TX,Hood,32.425,-97.7742
76049,Granbury,TX,Hood,32.4488,-97.7285
76462,Lipan,TX,Hood,32.5072,-97.9536
76467,Paluxy,TX,Hood,32.3414,-97.9321
76476,Tolar,TX,Hood,32.3772,-97.8802
75420,Brashear,TX,Hopkins,33.1155,-95.7345
75431,Como,TX,Hopkins,33.0107,-95.4734
75433,Cumby,TX,Hopkins,33.1118,-95.7945
75437,Dike,TX,Hopkins,33.2648,-95.4423
75471,Pickton,TX,Hopkins,33.0519,-95.3851
75478,Saltillo,TX,Hopkins,33.1767,-95.3433
75481,Sulphur Bluff,TX,Hopkins,33.3334,-95.374
75482,Sulphur Springs,TX,Hopkins,33.1345,-95.5922
75483,Sulphur Springs,TX,Hopkins,33.1686,-95.5855
75835,Crockett,TX,Houston,31.3208,-95.3928
75844,Grapeland,TX,Houston,31.4972,-95.4447
75847,Kennard,TX,Houston,31.3384,-95.1541
75849,Latexo,TX,Houston,31.4064,-95.4719
75851,Lovelady,TX,Houston,31.0564,-95.5501
75858,Ratcliff,TX,Houston,31.3833,-95.0619
79511,Coahoma,TX,Howard,32.2942,-101.3197
79720,Big Spring,TX,Howard,32.2787,-101.4578
79721,Big Spring,TX,Howard,32.2733,-101.374
79733,Forsan,TX,Howard,32.1105,-101.3669
79748,Knott,TX,Howard,32.4125,-101.6517
79837,Dell City,TX,Hudspeth,31.924,-105.2099
79839,Fort Hancock,TX,Hudspeth,31.2969,-105.8234
79847,Salt Flat,TX,Hudspeth,31.8244,-105.2212
79851,Sierra Blanca,TX,Hudspeth,31.1938,-105.3219
75135,Caddo Mills,TX,Hunt,33.0683,-96.2391
75401,Greenville,TX,Hunt,33.1854,-96.1304
75402,Greenville,TX,Hunt,33.1047,-96.0927
75403,Greenville,TX,Hunt,33.2185,-96.0487
75404,Greenville,TX,Hunt,33.0563,-96.081
75422,Campbell,TX,Hunt,33.151,-95.9439
75423,Celeste,TX,Hunt,33.2649,-96.2076
75428,Commerce,TX,Hunt,33.2493,-95.9097
75429,Commerce,TX,Hunt,33.2377,-95.9089
75453,Lone Oak,TX,Hunt,32.9916,-95.9434
75458,Merit,TX,Hunt,33.2427,-96.2916
75474,Quinlan,TX,Hunt,32.8983,-96.1261
75496,Wolfe City,TX,Hunt,33.3605,-96.0691
79007,Borger,TX,Hutchinson,35.6767,-101.431
79008,Borger,TX,Hutchinson,35.6316,-101.5994
79036,Fritch,TX,Hutchinson,35.6441,-101.5845
79078,Sanford,TX,Hutchinson,35.7011,-101.56
79083,Stinnett,TX,Hutchinson,35.8377,-101.45
76930,Barnhart,TX,Irion,31.1596,-101.1918
76941,Mertzon,TX,Irion,31.2829,-100.8221
76427,Bryson,TX,Jack,33.1615,-98.3874
76458,Jacksboro,TX,Jack,33.2347,-98.1681
76459,Jermyn,TX,Jack,33.2636,-98.3931
76486,Perrin,TX,Jack,33.0585,-98.044
77957,Edna,TX,Jackson,28.9527,-96.6488
77961,Francitas,TX,Jackson,28.8652,-96.3618
77962,Ganado,TX,Jackson,29.0308,-96.5031
77969,La Salle,TX,Jackson,28.7671,-96.6492
77970,La Ward,TX,Jackson,28.8381,-96.4135
77971,Lolita,TX,Jackson,28.7724,-96.4793
77991,Vanderbilt,TX,Jackson,28.8068,-96.6042
75951,Jasper,TX,Jasper,30.8673,-93.9977
75956,Kirbyville,TX,Jasper,30.6583,-93.8984
77612,Buna,TX,Jasper,30.4132,-93.9913
77615,Evadale,TX,Jasper,30.3129,-94.0731
79734,Fort Davis,TX,Jeff Davis,30.6131,-103.9364
79854,Valentine,TX,Jeff Davis,30.62,-104.4811
77613,China,TX,Jefferson,30.0108,-94.363
77619,Groves,TX,Jefferson,29.9448,-93.9152
77622,Hamshire,TX,Jefferson,29.8668,-94.3187
77627,Nederland,TX,Jefferson,29.9716,-94.0012
77629,Nome,TX,Jefferson,30.0015,-94.4189
77640,Port Arthur,TX,Jefferson,29.8709,-93.9643
77641,Port Arthur,TX,Jefferson,29.8476,-94.1297
77642,Port Arthur,TX,Jefferson,29.9212,-93.927
77643,Port Arthur,TX,Jefferson,29.9621,-93.8679
77651,Port Neches,TX,Jefferson,29.977,-93.9626
77655,Sabine Pass,TX,Jefferson,29.6682,-94.096
77701,Beaumont,TX,Jefferson,30.0688,-94.1039
77702,Beaumont,TX,Jefferson,30.0871,-94.1254
77703,Beaumont,TX,Jefferson,30.1132,-94.1197
77704,Beaumont,TX,Jefferson,30.1236,-94.1539
77705,Beaumont,TX,Jefferson,30.0211,-94.1157
77706,Beaumont,TX,Jefferson,30.0948,-94.1648
77707,Beaumont,TX,Jefferson,30.0686,-94.1755
77708,Beaumont,TX,Jefferson,30.14,-94.1604
77709,Voth,TX,Jefferson,30.1764,-94.1877
77710,Beaumont,TX,Jefferson,29.8476,-94.1297
77713,Beaumont,TX,Jefferson,30.085,-94.2607
77720,Beaumont,TX,Jefferson,29.8476,-94.1297
77725,Beaumont,TX,Jefferson,29.8476,-94.1297
77726,Beaumont,TX,Jefferson,30.1118,-94.1901
78360,Guerra,TX,Jim Hogg,27.0713,-98.6863
78361,Hebbronville,TX,Jim Hogg,27.2997,-98.6829
78332,Alice,TX,Jim Wells,27.7432,-98.0836
78333,Alice,TX,Jim Wells,27.6595,-98.0123
78342,Ben Bolt,TX,Jim Wells,27.6595,-98.0123
78372,Orange Grove,TX,Jim Wells,27.9487,-97.9838
78375,Premont,TX,Jim Wells,27.3544,-98.133
78383,Sandia,TX,Jim Wells,28.025,-97.8705
76009,Alvarado,TX,Johnson,32.4395,-97.213
76028,Burleson,TX,Johnson,32.5316,-97.309
76031,Cleburne,TX,Johnson,32.3429,-97.398
76033,Cleburne,TX,Johnson,32.3509,-97.4103
76044,Godley,TX,Johnson,32.4282,-97.5349
76050,Grandview,TX,Johnson,32.2779,-97.2351
76058,Joshua,TX,Johnson,32.4663,-97.4011
76059,Keene,TX,Johnson,32.3937,-97.3287
76061,Lillian,TX,Johnson,32.5036,-97.1748
76084,Venus,TX,Johnson,32.433,-97.1087
76093,Rio Vista,TX,Johnson,32.2532,-97.3678
76097,Burleson,TX,Johnson,32.5244,-97.2609
79501,Anson,TX,Jones,32.7489,-99.8953
79503,Avoca,TX,Jones,32.8832,-99.6964
79520,Hamlin,TX,Jones,32.8799,-100.128
79525,Hawley,TX,Jones,32.6423,-99.9239
79533,Lueders,TX,Jones,32.8712,-99.5783
79553,Stamford,TX,Jones,32.9453,-99.7859
78111,Ecleto,TX,Karnes,28.9449,-97.8828
78113,Falls City,TX,Karnes,28.9814,-98.0156
78116,Gillett,TX,Karnes,29.0514,-97.8343
78117,Hobson,TX,Karnes,28.9445,-97.9707
78118,Karnes City,TX,Karnes,28.8828,-97.9071
78119,Kenedy,TX,Karnes,28.8046,-97.8456
78144,Panna Maria,TX,Karnes,28.9562,-97.8982
78151,Runge,TX,Karnes,28.8876,-97.7138
75114,Crandall,TX,Kaufman,32.5975,-96.4637
75118,Elmo,TX,Kaufman,32.5996,-96.3027
75126,Forney,TX,Kaufman,32.7491,-96.4598
75142,Kaufman,TX,Kaufman,32.546,-96.2852
75147,Mabank,TX,Kaufman,32.3685,-96.0685
75157,Rosser,TX,Kaufman,32.4554,-96.4395
75158,Scurry,TX,Kaufman,32.4818,-96.3925
75160,Terrell,TX,Kaufman,32.7515,-96.2831
75161,Terrell,TX,Kaufman,32.7332,-96.195
78004,Bergheim,TX,Kendall,29.8979,-98.5642
78006,Boerne,TX,Kendall,29.8931,-98.6857
78013,Comfort,TX,Kendall,29.9791,-98.8438
78027,Kendalia,TX,Kendall,29.9406,-98.5166
78074,Waring,TX,Kendall,29.9523,-98.7944
78338,Armstrong,TX,Kenedy,26.8698,-97.7698
78385,Sarita,TX,Kenedy,27.1496,-97.8576
79518,Girard,TX,Kent,33.3632,-100.6937
79528,Jayton,TX,Kent,33.2518,-100.5825
78010,Center Point,TX,Kerr,29.929,-99.0736
78024,Hunt,TX,Kerr,30.0027,-99.4823
78025,Ingram,TX,Kerr,30.0731,-99.269
78028,Kerrville,TX,Kerr,30.0416,-99.1408
78029,Kerrville,TX,Kerr,30.0332,-99.141
78058,Mountain Home,TX,Kerr,30.1725,-99.485
76849,Junction,TX,Kimble,30.4754,-99.7473
76854,London,TX,Kimble,30.5888,-99.5441
76874,Roosevelt,TX,Kimble,30.47,-100.0901
79232,Dumont,TX,King,33.7262,-100.6166
79236,Guthrie,TX,King,33.6845,-100.3359
78832,Brackettville,TX,Kinney,29.3096,-100.4155
78363,Kingsville,TX,Kleberg,27.4229,-97.8407
78364,Kingsville,TX,Kleberg,27.3442,-97.7115
78379,Riviera,TX,Kleberg,27.3217,-97.7787
76363,Goree,TX,Knox,33.4748,-99.5258
76371,Munday,TX,Knox,33.4561,-99.6326
79505,Benjamin,TX,Knox,33.5556,-99.8271
79529,Knox City,TX,Knox,33.4183,-99.8137
75411,Arthur City,TX,Lamar,33.8643,-95.6111
75416,Blossom,TX,Lamar,33.6945,-95.3823
75421,Brookston,TX,Lamar,33.6246,-95.6888
75425,Chicota,TX,Lamar,33.6597,-95.5829
75434,Cunningham,TX,Lamar,33.409,-95.3711
75435,Deport,TX,Lamar,33.5221,-95.3654
75460,Paris,TX,Lamar,33.6581,-95.5379
75461,Paris,TX,Lamar,33.6632,-95.4608
75462,Paris,TX,Lamar,33.6805,-95.4905
75468,Pattonville,TX,Lamar,33.5702,-95.3908
75470,Petty,TX,Lamar,33.6098,-95.7891
75473,Powderly,TX,Lamar,33.7779,-95.5307
75477,Roxton,TX,Lamar,33.5429,-95.7416
75486,Sumner,TX,Lamar,33.7589,-95.6807
79031,Earth,TX,Lamb,34.2415,-102.4213
79064,Olton,TX,Lamb,34.1844,-102.1414
79082,Springlake,TX,Lamb,34.2393,-102.309
79312,Amherst,TX,Lamb,33.9976,-102.4416
79326,Fieldton,TX,Lamb,34.053,-102.206
79339,Littlefield,TX,Lamb,33.9212,-102.3207
79369,Spade,TX,Lamb,33.9256,-102.1564
79371,Sudan,TX,Lamb,34.0697,-102.5255
76539,Kempner,TX,Lampasas,31.0731,-97.9721
76550,Lampasas,TX,Lampasas,31.068,-98.1834
76824,Bend,TX,Lampasas,31.1123,-98.4821
76853,Lometa,TX,Lampasas,31.2167,-98.4006
78001,Artesia Wells,TX,La Salle,28.2639,-99.2802
78014,Cotulla,TX,La Salle,28.4398,-99.2328
78019,Encinal,TX,La Salle,28.0405,-99.3563
78021,Fowlerton,TX,La Salle,28.4887,-98.8518
77964,Hallettsville,TX,Lavaca,29.4426,-96.9234
77975,Moulton,TX,Lavaca,29.57,-97.1031
77984,Shiner,TX,Lavaca,29.428,-97.164
77985,Speaks,TX,Lavaca,29.348,-96.9003
77986,Sublime,TX,Lavaca,29.4876,-96.7946
77987,Sweet Home,TX,Lavaca,29.348,-96.9003
77995,Yoakum,TX,Lavaca,29.284,-97.1306
77853,Dime Box,TX,Lee,30.3579,-96.8248
78942,Giddings,TX,Lee,30.1777,-96.9332
78947,Lexington,TX,Lee,30.4191,-97.0524
78948,Lincoln,TX,Lee,30.3177,-96.9702
75831,Buffalo,TX,Leon,31.4121,-95.9904
75833,Centerville,TX,Leon,31.272,-95.9213
75846,Jewett,TX,Leon,31.3739,-96.1918
75850,Leona,TX,Leon,31.1421,-95.9284
75855,Oakwood,TX,Leon,31.6023,-95.9022
77850,Concord,TX,Leon,31.3138,-95.9935
77855,Flynn,TX,Leon,31.1593,-96.1234
77865,Marquez,TX,Leon,31.2309,-96.2375
77871,Normangee,TX,Leon,31.0705,-96.125
77327,Cleveland,TX,Liberty,30.33,-95.0202
77328,Cleveland,TX,Liberty,30.1889,-94.8041
77368,Romayor,TX,Liberty,30.4359,-94.8222
77369,Rye,TX,Liberty,30.4596,-94.7436
77533,Daisetta,TX,Liberty,30.1104,-94.66
77535,Dayton,TX,Liberty,30.0102,-94.8787
77538,Devers,TX,Liberty,29.9978,-94.5746
77561,Hardin,TX,Liberty,30.151,-94.7338
77564,Hull,TX,Liberty,30.1334,-94.6604
77575,Liberty,TX,Liberty,30.0946,-94.7378
77582,Raywood,TX,Liberty,30.0542,-94.6764
76635,Coolidge,TX,Limestone,31.7438,-96.6577
76642,Groesbeck,TX,Limestone,31.5357,-96.5234
76653,Kosse,TX,Limestone,31.3147,-96.6195
76667,Mexia,TX,Limestone,31.6784,-96.4952
76678,Prairie Hill,TX,Limestone,31.6591,-96.8094
76686,Tehuacana,TX,Limestone,31.7504,-96.5416
76687,Thornton,TX,Limestone,31.4083,-96.5024
79005,Booker,TX,Lipscomb,36.4429,-100.5238
79024,Darrouzett,TX,Lipscomb,36.4453,-100.3254
79034,Follett,TX,Lipscomb,36.4309,-100.2068
79046,Higgins,TX,Lipscomb,36.1365,-100.0952
79056,Lipscomb,TX,Lipscomb,36.223,-100.2702
78022,George West,TX,Live Oak,28.3204,-98.1162
78060,Oakville,TX,Live Oak,28.4218,-98.0719
78071,Three Rivers,TX,Live Oak,28.4756,-98.1782
78075,Whitsett,TX,Live Oak,28.6373,-98.2565
78350,Dinero,TX,Live Oak,28.4218,-98.0719
76831,Castell,TX,Llano,30.7565,-98.9712
76885,Valley Spring,TX,Llano,30.866,-98.8357
78607,Bluffton,TX,Llano,30.8256,-98.515
78609,Buchanan Dam,TX,Llano,30.7538,-98.4295
78639,Kingsland,TX,Llano,30.6662,-98.4475
78643,Llano,TX,Llano,30.7151,-98.6109
78672,Tow,TX,Llano,30.8609,-98.4596
79754,Mentone,TX,Loving,31.7384,-103.5503
79329,Idalou,TX,Lubbock,33.6504,-101.6786
79350,New Deal,TX,Lubbock,33.7296,-101.8355
79363,Shallowater,TX,Lubbock,33.6919,-101.9836
79364,Slaton,TX,Lubbock,33.4629,-101.6732
79366,Ransom Canyon,TX,Lubbock,33.533,-101.6908
79382,Wolfforth,TX,Lubbock,33.5304,-102.0261
79401,Lubbock,TX,Lubbock,33.5865,-101.8606
79402,Lubbock,TX,Lubbock,33.5922,-101.8511
79403,Lubbock,TX,Lubbock,33.6196,-101.8098
79404,Lubbock,TX,Lubbock,33.526,-101.8333
79405,Lubbock,TX,Lubbock,33.571,-101.8507
79406,Lubbock,TX,Lubbock,33.5819,-101.8778
79407,Lubbock,TX,Lubbock,33.5684,-101.9423
79408,Lubbock,TX,Lubbock,33.5659,-101.9267
79409,Lubbock,TX,Lubbock,33.61,-101.8213
79410,Lubbock,TX,Lubbock,33.5693,-101.8904
79411,Lubbock,TX,Lubbock,33.5704,-101.8626
79412,Lubbock,TX,Lubbock,33.5463,-101.8577
79413,Lubbock,TX,Lubbock,33.5466,-101.8871
79414,Lubbock,TX,Lubbock,33.5497,-101.9187
79415,Lubbock,TX,Lubbock,33.6021,-101.876
79416,Lubbock,TX,Lubbock,33.5924,-101.9367
79423,Lubbock,TX,Lubbock,33.5146,-101.8795
79424,Lubbock,TX,Lubbock,33.5159,-101.9344
79430,Lubbock,TX,Lubbock,33.61,-101.8213
79452,Lubbock,TX,Lubbock,33.61,-101.8213
79453,Lubbock,TX,Lubbock,33.61,-101.8213
79457,Lubbock,TX,Lubbock,33.61,-101.8213
79464,Lubbock,TX,Lubbock,33.4896,-102.0109
79490,Lubbock,TX,Lubbock,33.61,-101.8213
79491,Lubbock,TX,Lubbock,33.61,-101.8213
79493,Lubbock,TX,Lubbock,33.61,-101.8213
79499,Lubbock,TX,Lubbock,33.61,-101.8213
79351,Odonnell,TX,Lynn,32.9773,-101.8271
79373,Tahoka,TX,Lynn,33.1988,-101.822
79381,Wilson,TX,Lynn,33.3299,-101.7122
79383,New Home,TX,Lynn,33.3451,-101.9203
76825,Brady,TX,McCulloch,31.1509,-99.3372
76836,Doole,TX,McCulloch,31.2172,-99.3472
76852,Lohn,TX,McCulloch,31.3173,-99.3833
76858,Melvin,TX,McCulloch,31.1851,-99.5439
76867,Pear Valley,TX,McCulloch,31.2172,-99.3472
76872,Rochelle,TX,McCulloch,31.3,-99.1572
76887,Voca,TX,McCulloch,30.9959,-99.1682
76524,Eddy,TX,McLennan,31.3088,-97.2774
76557,Moody,TX,McLennan,31.2533,-97.41
76624,Axtell,TX,McLennan,31.661,-96.9882
76630,Bruceville,TX,McLennan,31.3267,-97.2342
76633,China Spring,TX,McLennan,31.6673,-97.3002
76638,Crawford,TX,McLennan,31.5598,-97.39
76640,Elm Mott,TX,McLennan,31.6725,-97.1138
76643,Hewitt,TX,McLennan,31.4582,-97.1966
76654,Leroy,TX,McLennan,31.5536,-97.2032
76655,Lorena,TX,McLennan,31.4093,-97.2302
76657,Mc Gregor,TX,McLennan,31.4431,-97.3943
76664,Mart,TX,McLennan,31.5458,-96.8381
76682,Riesel,TX,McLennan,31.5002,-96.9476
76684,Ross,TX,McLennan,31.7173,-97.1188
76691,West,TX,McLennan,31.7754,-97.1258
76701,Waco,TX,McLennan,31.5525,-97.1396
76702,Waco,TX,McLennan,31.5475,-97.1443
76703,Waco,TX,McLennan,31.5536,-97.2032
76704,Waco,TX,McLennan,31.5773,-97.1241
76705,Waco,TX,McLennan,31.6403,-97.0963
76706,Waco,TX,McLennan,31.5171,-97.1198
76707,Waco,TX,McLennan,31.5527,-97.1588
76708,Waco,TX,McLennan,31.5765,-97.1786
76710,Waco,TX,McLennan,31.535,-97.1899
76711,Waco,TX,McLennan,31.5175,-97.1547
76712,Woodway,TX,McLennan,31.5051,-97.2311
76714,Waco,TX,McLennan,31.5536,-97.2032
76715,Waco,TX,McLennan,31.5536,-97.2032
76716,Waco,TX,McLennan,31.5536,-97.2032
76795,Waco,TX,McLennan,31.5536,-97.2032
76797,Waco,TX,McLennan,31.5536,-97.2032
76798,Waco,TX,McLennan,31.547,-97.1203
76799,Waco,TX,McLennan,31.5411,-97.1615
78007,Calliham,TX,McMullen,28.4553,-98.4098
78072,Tilden,TX,McMullen,28.4198,-98.5693
75852,Midway,TX,Madison,30.9806,-95.7089
77864,Madisonville,TX,Madison,30.9533,-95.9091
77872,North Zulch,TX,Madison,30.9285,-96.0925
75564,Lodi,TX,Marion,32.8718,-94.2729
75657,Jefferson,TX,Marion,32.8059,-94.3655
79749,Lenorah,TX,Martin,32.2589,-101.8442
79782,Stanton,TX,Martin,32.14,-101.8099
79783,Tarzan,TX,Martin,32.3575,-101.9607
76820,Art,TX,Mason,30.7204,-99.1001
76842,Fredonia,TX,Mason,30.9214,-99.1216
76856,Mason,TX,Mason,30.7434,-99.2261
76869,Pontotoc,TX,Mason,30.8906,-99.0212
77404,Bay City,TX,Matagorda,28.7982,-95.6511
77414,Bay City,TX,Matagorda,28.8636,-95.9173
77415,Cedar Lane,TX,Matagorda,28.9235,-95.7247
77419,Blessing,TX,Matagorda,28.8649,-96.218
77428,Collegeport,TX,Matagorda,28.7175,-96.1434
77440,Elmaton,TX,Matagorda,28.876,-96.1434
77456,Markham,TX,Matagorda,28.9547,-96.0928
77457,Matagorda,TX,Matagorda,28.6496,-95.9623
77458,Midfield,TX,Matagorda,28.9362,-96.2265
77465,Palacios,TX,Matagorda,28.715,-96.2154
77468,Pledger,TX,Matagorda,29.1792,-95.8986
77482,Van Vleck,TX,Matagorda,29.016,-95.8905
77483,Wadsworth,TX,Matagorda,28.8259,-95.9046
78852,Eagle Pass,TX,Maverick,28.7028,-100.4818
78853,Eagle Pass,TX,Maverick,28.679,-100.4784
78860,El Indio,TX,Maverick,28.5331,-100.342
78877,Quemado,TX,Maverick,28.9256,-100.5912
78009,Castroville,TX,Medina,29.3553,-98.8824
78016,Devine,TX,Medina,29.1521,-98.909
78039,La Coste,TX,Medina,29.3082,-98.8125
78056,Mico,TX,Medina,29.591,-98.8821
78059,Natalia,TX,Medina,29.2117,-98.8552
78066,Rio Medina,TX,Medina,29.4612,-98.8694
78850,D Hanis,TX,Medina,29.3398,-99.2835
78861,Hondo,TX,Medina,29.3986,-99.1762
78886,Yancey,TX,Medina,29.1404,-99.1428
76841,Fort Mc Kavett,TX,Menard,30.829,-100.0809
76848,Hext,TX,Menard,30.8816,-99.554
76859,Menard,TX,Menard,30.9119,-99.7847
79701,Midland,TX,Midland,31.9896,-102.0626
79702,Midland,TX,Midland,31.9637,-102.0801
79703,Midland,TX,Midland,31.9721,-102.1369
79704,Midland,TX,Midland,31.8693,-102.0317
79705,Midland,TX,Midland,32.0295,-102.0915
79706,Midland,TX,Midland,31.8816,-102.0134
79707,Midland,TX,Midland,32.0199,-102.1476
79708,Midland,TX,Midland,31.8693,-102.0317
79710,Midland,TX,Midland,31.8693,-102.0317
79711,Midland,TX,Midland,31.8693,-102.0317
79712,Midland,TX,Midland,31.8693,-102.0317
76518,Buckholts,TX,Milam,30.8858,-97.1241
76519,Burlington,TX,Milam,30.9736,-96.9642
76520,Cameron,TX,Milam,30.8527,-96.9766
76523,Davilla,TX,Milam,30.7824,-97.298
76555,Maysfield,TX,Milam,30.7842,-96.9638
76556,Milano,TX,Milam,30.7304,-96.8807
76567,Rockdale,TX,Milam,30.6583,-97.0079
76577,Thorndale,TX,Milam,30.6082,-97.1764
77857,Gause,TX,Milam,30.7833,-96.7237
76844,Goldthwaite,TX,Mills,31.4458,-98.5744
76864,Mullin,TX,Mills,31.5748,-98.6635
76870,Priddy,TX,Mills,31.641,-98.5276
76880,Star,TX,Mills,31.4771,-98.6309
79512,Colorado City,TX,Mitchell,32.3987,-100.8609
79532,Loraine,TX,Mitchell,32.385,-100.7285
79565,Westbrook,TX,Mitchell,32.3627,-101.043
76230,Bowie,TX,Montague,33.5568,-97.8373
76239,Forestburg,TX,Montague,33.5398,-97.5848
76251,Montague,TX,Montague,33.6639,-97.7282
76255,Nocona,TX,Montague,33.7982,-97.727
76261,Ringgold,TX,Montague,33.8164,-97.944
76265,Saint Jo,TX,Montague,33.744,-97.5568
76270,Sunset,TX,Montague,33.4539,-97.7709
77301,Conroe,TX,Montgomery,30.3125,-95.4527
77302,Conroe,TX,Montgomery,30.2238,-95.3577
77303,Conroe,TX,Montgomery,30.3814,-95.3749
77304,Conroe,TX,Montgomery,30.3217,-95.5285
77305,Conroe,TX,Montgomery,30.2906,-95.3832
77306,Conroe,TX,Montgomery,30.2277,-95.2851
77316,Montgomery,TX,Montgomery,30.3587,-95.6857
77318,Willis,TX,Montgomery,30.4416,-95.5394
77333,Dobbin,TX,Montgomery,30.3365,-95.7723
77353,Magnolia,TX,Montgomery,30.1806,-95.7092
77354,Magnolia,TX,Montgomery,30.2333,-95.5502
77355,Magnolia,TX,Montgomery,30.1598,-95.7402
77356,Montgomery,TX,Montgomery,30.4411,-95.7097
77357,New Caney,TX,Montgomery,30.1579,-95.198
77362,Pinehurst,TX,Montgomery,30.1581,-95.6814
77365,Porter,TX,Montgomery,30.1237,-95.2686
77372,Splendora,TX,Montgomery,30.2326,-95.1993
77378,Willis,TX,Montgomery,30.4441,-95.4506
77380,Spring,TX,Montgomery,30.1441,-95.4703
77381,Spring,TX,Montgomery,30.1716,-95.4985
77384,Conroe,TX,Montgomery,30.2257,-95.4924
77385,Conroe,TX,Montgomery,30.1877,-95.4288
77386,Spring,TX,Montgomery,30.1288,-95.4239
77387,Spring,TX,Montgomery,30.3784,-95.557
77393,Spring,TX,Montgomery,30.329,-95.4635
79013,Cactus,TX,Moore,36.0412,-102.0008
79029,Dumas,TX,Moore,35.8823,-101.968
79058,Masterson,TX,Moore,35.8378,-101.8928
79086,Sunray,TX,Moore,36.0097,-101.8123
75568,Naples,TX,Morris,33.1912,-94.6891
75571,Omaha,TX,Morris,33.1808,-94.7639
75636,Cason,TX,Morris,33.024,-94.8249
75638,Daingerfield,TX,Morris,33.0313,-94.7359
75668,Lone Star,TX,Morris,32.9252,-94.7049
79234,Flomot,TX,Motley,34.2321,-101.0038
79244,Matador,TX,Motley,34.0525,-100.8361
79256,Roaring Springs,TX,Motley,33.8977,-100.8528
75760,Cushing,TX,Nacogdoches,31.7978,-94.8539
75788,Sacul,TX,Nacogdoches,31.8254,-94.9189
75937,Chireno,TX,Nacogdoches,31.5119,-94.4302
75943,Douglass,TX,Nacogdoches,31.6578,-94.8696
75944,Etoile,TX,Nacogdoches,31.3601,-94.4064
75946,Garrison,TX,Nacogdoches,31.8111,-94.5266
75958,Martinsville,TX,Nacogdoches,31.5342,-94.639
75961,Nacogdoches,TX,Nacogdoches,31.6645,-94.5784
75962,Nacogdoches,TX,Nacogdoches,31.6995,-94.6074
75963,Nacogdoches,TX,Nacogdoches,31.6046,-94.6641
75964,Nacogdoches,TX,Nacogdoches,31.6737,-94.6932
75965,Nacogdoches,TX,Nacogdoches,31.7195,-94.6168
75978,Woden,TX,Nacogdoches,31.5037,-94.525
75102,Barry,TX,Navarro,32.1014,-96.6251
75105,Chatfield,TX,Navarro,32.2954,-96.3887
75109,Corsicana,TX,Navarro,31.9937,-96.4199
75110,Corsicana,TX,Navarro,32.0868,-96.4762
75144,Kerens,TX,Navarro,32.1275,-96.2298
75151,Corsicana,TX,Navarro,32.0624,-96.4735
75153,Powell,TX,Navarro,32.1196,-96.3327
76626,Blooming Grove,TX,Navarro,32.0758,-96.701
76639,Dawson,TX,Navarro,31.8974,-96.7085
76641,Frost,TX,Navarro,32.0275,-96.7684
76679,Purdon,TX,Navarro,31.9483,-96.5856
76681,Richland,TX,Navarro,31.9018,-96.4373
75928,Bon Wier,TX,Newton,30.6876,-93.7665
75932,Burkeville,TX,Newton,31.0099,-93.6585
75933,Call,TX,Newton,30.5741,-93.8334
75966,Newton,TX,Newton,30.8351,-93.7497
75977,Wiergate,TX,Newton,31.0414,-93.8039
77614,Deweyville,TX,Newton,30.2894,-93.7488
79506,Blackwell,TX,Nolan,32.082,-100.3111
79535,Maryneal,TX,Nolan,32.2026,-100.4972
79537,Nolan,TX,Nolan,32.2793,-100.2671
79545,Roscoe,TX,Nolan,32.4276,-100.5391
79556,Sweetwater,TX,Nolan,32.4726,-100.3979
78330,Agua Dulce,TX,Nueces,27.781,-97.8551
78339,Banquete,TX,Nueces,27.8045,-97.8087
78343,Bishop,TX,Nueces,27.5886,-97.783
78347,Chapman Ranch,TX,Nueces,27.5988,-97.462
78351,Driscoll,TX,Nueces,27.6868,-97.7427
78373,Port Aransas,TX,Nueces,27.7707,-97.1051
78380,Robstown,TX,Nueces,27.7984,-97.6995
78401,Corpus Christi,TX,Nueces,27.7941,-97.403
78402,Corpus Christi,TX,Nueces,27.8262,-97.3857
78403,Corpus Christi,TX,Nueces,27.777,-97.4632
78404,Corpus Christi,TX,Nueces,27.7683,-97.4013
78405,Corpus Christi,TX,Nueces,27.7762,-97.4271
78406,Corpus Christi,TX,Nueces,27.7684,-97.5144
78407,Corpus Christi,TX,Nueces,27.8042,-97.4356
78408,Corpus Christi,TX,Nueces,27.7945,-97.4382
78409,Corpus Christi,TX,Nueces,27.8146,-97.527
78410,Corpus Christi,TX,Nueces,27.8458,-97.596
78411,Corpus Christi,TX,Nueces,27.7311,-97.3877
78412,Corpus Christi,TX,Nueces,27.7061,-97.3537
78413,Corpus Christi,TX,Nueces,27.691,-97.3983
78414,Corpus Christi,TX,Nueces,27.677,-97.365
78415,Corpus Christi,TX,Nueces,27.7262,-97.4078
78416,Corpus Christi,TX,Nueces,27.7536,-97.4347
78417,Corpus Christi,TX,Nueces,27.729,-97.4494
78418,Corpus Christi,TX,Nueces,27.6349,-97.3103
78419,Corpus Christi,TX,Nueces,27.7236,-97.3809
78426,Corpus Christi,TX,Nueces,27.777,-97.4632
78427,Corpus Christi,TX,Nueces,27.777,-97.4632
78460,Corpus Christi,TX,Nueces,27.8899,-97.8797
78461,Corpus Christi,TX,Nueces,27.777,-97.4632
78463,Corpus Christi,TX,Nueces,27.777,-97.4632
78465,Corpus Christi,TX,Nueces,27.777,-97.4632
78466,Corpus Christi,TX,Nueces,27.777,-97.4632
78467,Corpus Christi,TX,Nueces,27.777,-97.4632
78468,Corpus Christi,TX,Nueces,27.777,-97.4632
78469,Corpus Christi,TX,Nueces,27.777,-97.4632
78470,Corpus Christi,TX,Nueces,27.777,-97.4632
78471,Corpus Christi,TX,Nueces,27.777,-97.4632
78472,Corpus Christi,TX,Nueces,27.7402,-97.5792
78473,Corpus Christi,TX,Nueces,27.777,-97.4632
78474,Corpus Christi,TX,Nueces,27.777,-97.4632
78475,Corpus Christi,TX,Nueces,27.777,-97.4632
78476,Corpus Christi,TX,Nueces,27.777,-97.4632
78477,Corpus Christi,TX,Nueces,27.777,-97.4632
78478,Corpus Christi,TX,Nueces,27.777,-97.4632
78480,Corpus Christi,TX,Nueces,27.777,-97.4632
79033,Farnsworth,TX,Ochiltree,36.2963,-100.9843
79070,Perryton,TX,Ochiltree,36.3748,-100.8156
79093,Waka,TX,Ochiltree,36.2716,-101.0443
79001,Adrian,TX,Oldham,35.2758,-102.697
79010,Boys Ranch,TX,Oldham,35.4471,-102.1721
79092,Vega,TX,Oldham,35.2241,-102.4214
79098,Wildorado,TX,Oldham,35.1916,-102.2118
77611,Bridge City,TX,Orange,30.0192,-93.8326
77626,Mauriceville,TX,Orange,30.204,-93.8866
77630,Orange,TX,Orange,30.0709,-93.8659
77631,Orange,TX,Orange,30.0548,-93.9031
77632,Orange,TX,Orange,30.1775,-93.8409
77639,Orangefield,TX,Orange,30.0631,-93.8599
77662,Vidor,TX,Orange,30.1502,-94.0008
77670,Vidor,TX,Orange,30.0548,-93.9031
76067,Mineral Wells,TX,Palo Pinto,32.8103,-98.0631
76068,Mineral Wells,TX,Palo Pinto,32.7598,-98.3162
76449,Graford,TX,Palo Pinto,32.9242,-98.337
76453,Gordon,TX,Palo Pinto,32.5478,-98.3632
76463,Mingus,TX,Palo Pinto,32.5381,-98.4219
76472,Santo,TX,Palo Pinto,32.5979,-98.1797
76475,Strawn,TX,Palo Pinto,32.5945,-98.4995
76484,Palo Pinto,TX,Palo Pinto,32.7048,-98.3469
75631,Beckville,TX,Panola,32.2452,-94.4555
75633,Carthage,TX,Panola,32.1544,-94.3527
75637,Clayton,TX,Panola,32.1027,-94.4935
75639,De Berry,TX,Panola,32.2543,-94.1356
75643,Gary,TX,Panola,32.0334,-94.38
75669,Long Branch,TX,Panola,32.0449,-94.5381
75685,Panola,TX,Panola,32.1838,-94.3087
76008,Aledo,TX,Parker,32.7004,-97.6039
76066,Millsap,TX,Parker,32.7457,-97.9561
76082,Springtown,TX,Parker,32.966,-97.635
76085,Weatherford,TX,Parker,32.7676,-97.7516
76086,Weatherford,TX,Parker,32.7841,-97.7386
76087,Weatherford,TX,Parker,32.7495,-97.6894
76088,Weatherford,TX,Parker,32.8478,-97.8606
76098,Azle,TX,Parker,32.8957,-97.5636
76439,Dennis,TX,Parker,32.6325,-97.9575
76485,Peaster,TX,Parker,32.7793,-97.8055
76487,Poolville,TX,Parker,32.968,-97.8472
76490,Whitt,TX,Parker,32.9555,-98.021
79009,Bovina,TX,Parmer,34.4815,-102.8061
79035,Friona,TX,Parmer,34.6274,-102.7844
79053,Lazbuddie,TX,Parmer,34.3847,-102.587
79325,Farwell,TX,Parmer,34.386,-102.9901
79730,Coyanosa,TX,Pecos,31.2295,-103.0538
79735,Fort Stockton,TX,Pecos,30.8908,-102.8799
79740,Girvin,TX,Pecos,31.0473,-102.4592
79743,Imperial,TX,Pecos,31.2373,-102.7109
79744,Iraan,TX,Pecos,30.9156,-101.9152
79781,Sheffield,TX,Pecos,30.6935,-101.86
75934,Camden,TX,Polk,30.9,-94.7547
75939,Corrigan,TX,Polk,31.0408,-94.8124
75960,Moscow,TX,Polk,30.9179,-94.8544
77326,Ace,TX,Polk,30.5209,-94.8221
77332,Dallardsville,TX,Polk,30.8179,-94.8691
77335,Goodrich,TX,Polk,30.6079,-94.9592
77350,Leggett,TX,Polk,30.8568,-94.8561
77351,Livingston,TX,Polk,30.6829,-94.8976
77360,Onalaska,TX,Polk,30.8225,-95.1056
77399,Livingston,TX,Polk,30.8179,-94.8691
79012,Bushland,TX,Potter,35.2664,-102.0978
79101,Amarillo,TX,Potter,35.2032,-101.8421
79102,Amarillo,TX,Potter,35.1999,-101.8496
79103,Amarillo,TX,Potter,35.1751,-101.7976
79104,Amarillo,TX,Potter,35.1939,-101.7975
79105,Amarillo,TX,Potter,35.4015,-101.8951
79106,Amarillo,TX,Potter,35.1977,-101.8949
79107,Amarillo,TX,Potter,35.2309,-101.806
79108,Amarillo,TX,Potter,35.2779,-101.83
79111,Amarillo,TX,Potter,35.2286,-101.6703
79116,Amarillo,TX,Potter,35.2454,-101.999
79117,Amarillo,TX,Potter,35.3089,-101.843
79120,Amarillo,TX,Potter,35.1964,-101.8034
79123,Amarillo,TX,Potter,35.4015,-101.8951
79124,Amarillo,TX,Potter,35.2703,-101.943
79159,Amarillo,TX,Potter,35.216,-102.0714
79160,Amarillo,TX,Potter,35.4015,-101.8951
79163,Amarillo,TX,Potter,35.4015,-101.8951
79164,Amarillo,TX,Potter,35.4015,-101.8951
79165,Amarillo,TX,Potter,35.4015,-101.8951
79166,Amarillo,TX,Potter,35.4015,-101.8951
79167,Amarillo,TX,Potter,35.4015,-101.8951
79168,Amarillo,TX,Potter,35.4015,-101.8951
79170,Amarillo,TX,Potter,35.4015,-101.8951
79171,Amarillo,TX,Potter,35.4015,-101.8951
79172,Amarillo,TX,Potter,35.4015,-101.8951
79174,Amarillo,TX,Potter,35.4015,-101.8951
79175,Amarillo,TX,Potter,35.4015,-101.8951
79178,Amarillo,TX,Potter,35.4015,-101.8951
79180,Amarillo,TX,Potter,35.4015,-101.8951
79181,Amarillo,TX,Potter,35.4015,-101.8951
79182,Amarillo,TX,Potter,35.4015,-101.8951
79184,Amarillo,TX,Potter,35.4015,-101.8951
79185,Amarillo,TX,Potter,35.4015,-101.8951
79186,Amarillo,TX,Potter,35.4015,-101.8951
79187,Amarillo,TX,Potter,35.4015,-101.8951
79189,Amarillo,TX,Potter,35.4015,-101.8951
79843,Marfa,TX,Presidio,30.293,-104.0848
79845,Presidio,TX,Presidio,29.5573,-104.3551
79846,Redford,TX,Presidio,29.4702,-104.0055
79850,Shafter,TX,Presidio,29.9437,-104.3867
75410,Alba,TX,Rains,32.7652,-95.5971
75440,Emory,TX,Rains,32.875,-95.7418
75472,Point,TX,Rains,32.9007,-95.8903
79015,Canyon,TX,Randall,34.9772,-101.9247
79016,Canyon,TX,Randall,34.9654,-101.8959
79091,Umbarger,TX,Randall,34.901,-102.0788
79109,Amarillo,TX,Randall,35.1663,-101.8868
79110,Amarillo,TX,Randall,35.1545,-101.8641
79114,Amarillo,TX,Randall,35.05,-101.8175
79118,Amarillo,TX,Randall,35.0763,-101.8349
79119,Amarillo,TX,Randall,35.0642,-101.9743
79121,Amarillo,TX,Randall,35.1697,-101.9266
76932,Big Lake,TX,Reagan,31.417,-101.5423
78833,Camp Wood,TX,Real,29.6795,-100.0084
78873,Leakey,TX,Real,29.769,-99.7479
78879,Rio Frio,TX,Real,29.6495,-99.7165
75412,Bagwell,TX,Red River,33.8361,-95.1487
75417,Bogata,TX,Red River,33.4699,-95.1937
75426,Clarksville,TX,Red River,33.6236,-95.0461
75436,Detroit,TX,Red River,33.6627,-95.2385
75550,Annona,TX,Red River,33.5535,-94.8992
75554,Avery,TX,Red River,33.5339,-94.7867
79718,Balmorhea,TX,Reeves,30.9478,-103.7699
79770,Orla,TX,Reeves,31.3833,-103.5566
79772,Pecos,TX,Reeves,31.4467,-103.5791
79780,Saragosa,TX,Reeves,31.0428,-103.6364
79785,Toyah,TX,Reeves,31.282,-103.8057
79786,Toyahvale,TX,Reeves,31.3833,-103.5566
77950,Austwell,TX,Refugio,28.4023,-96.853
77990,Tivoli,TX,Refugio,28.4587,-96.8928
78340,Bayside,TX,Refugio,28.0968,-97.2106
78377,Refugio,TX,Refugio,28.3169,-97.2767
78393,Woodsboro,TX,Refugio,28.2232,-97.3192
79059,Miami,TX,Roberts,35.7193,-100.7027
76629,Bremond,TX,Robertson,31.156,-96.6697
77837,Calvert,TX,Robertson,30.9782,-96.6711
77856,Franklin,TX,Robertson,31.0001,-96.5171
77859,Hearne,TX,Robertson,30.8669,-96.5843
77867,Mumford,TX,Robertson,30.7662,-96.5786
77870,New Baden,TX,Robertson,31.0593,-96.3994
77882,Wheelock,TX,Robertson,30.9121,-96.4211
75032,Rockwall,TX,Rockwall,32.886,-96.4095
75087,Rockwall,TX,Rockwall,32.9492,-96.4418
75132,Fate,TX,Rockwall,32.9411,-96.3828
75189,Royse City,TX,Rockwall,32.9628,-96.3648
76821,Ballinger,TX,Runnels,31.7468,-99.9589
76861,Miles,TX,Runnels,31.6121,-100.1823
76865,Norton,TX,Runnels,31.8795,-100.1315
76875,Rowena,TX,Runnels,31.6436,-100.0191
79566,Wingate,TX,Runnels,32.0318,-100.1183
79567,Winters,TX,Runnels,31.962,-99.9551
75652,Henderson,TX,Rusk,32.2131,-94.7834
75653,Henderson,TX,Rusk,32.2047,-94.8845
75654,Henderson,TX,Rusk,32.126,-94.7488
75658,Joinerville,TX,Rusk,32.1959,-94.9065
75666,Laird Hill,TX,Rusk,32.3019,-94.9288
75667,Laneville,TX,Rusk,31.9508,-94.866
75680,Minden,TX,Rusk,32.0028,-94.7129
75681,Mount Enterprise,TX,Rusk,31.9125,-94.6235
75682,New London,TX,Rusk,32.2542,-94.9322
75684,Overton,TX,Rusk,32.269,-94.9529
75687,Price,TX,Rusk,32.1518,-94.9554
75689,Selman City,TX,Rusk,32.1826,-94.9355
75691,Tatum,TX,Rusk,32.3266,-94.596
75930,Bronson,TX,Sabine,31.3391,-93.9993
75931,Brookeland,TX,Sabine,31.0922,-93.9684
75947,Geneva,TX,Sabine,31.3731,-93.8219
75948,Hemphill,TX,Sabine,31.3161,-93.7904
75959,Milam,TX,Sabine,31.5033,-93.8778
75968,Pineland,TX,Sabine,31.2418,-93.9754
75929,Broaddus,TX,San Augustine,31.2952,-94.2156
75972,San Augustine,TX,San Augustine,31.5152,-94.1326
77331,Coldspring,TX,San Jacinto,30.6027,-95.1086
77359,Oakhurst,TX,San Jacinto,30.7126,-95.3095
77364,Pointblank,TX,San Jacinto,30.7593,-95.2295
77371,Shepherd,TX,San Jacinto,30.4834,-95.0929
78335,Aransas Pass,TX,San Patricio,27.9125,-97.1884
78336,Aransas Pass,TX,San Patricio,27.9095,-97.1591
78352,Edroy,TX,San Patricio,27.9906,-97.6898
78359,Gregory,TX,San Patricio,27.9326,-97.2959
78362,Ingleside,TX,San Patricio,27.8682,-97.2069
78368,Mathis,TX,San Patricio,28.0802,-97.8097
78370,Odem,TX,San Patricio,27.9403,-97.5838
78374,Portland,TX,San Patricio,27.8935,-97.3169
78387,Sinton,TX,San Patricio,28.0339,-97.5196
78390,Taft,TX,San Patricio,27.9765,-97.3966
76832,Cherokee,TX,San Saba,30.9806,-98.6633
76871,Richland Springs,TX,San Saba,31.3003,-98.9128
76877,San Saba,TX,San Saba,31.1627,-98.7309
76936,Eldorado,TX,Schleicher,30.8667,-100.5889
79516,Dunn,TX,Scurry,32.7477,-100.9153
79517,Fluvanna,TX,Scurry,32.853,-101.103
79526,Hermleigh,TX,Scurry,32.6294,-100.7547
79527,Ira,TX,Scurry,32.5923,-101.0715
79549,Snyder,TX,Scurry,32.7451,-100.9175
79550,Snyder,TX,Scurry,32.7477,-100.9153
76430,Albany,TX,Shackelford,32.719,-99.3196
76464,Moran,TX,Shackelford,32.5549,-99.1656
75935,Center,TX,Shelby,31.7865,-94.1869
75954,Joaquin,TX,Shelby,31.944,-94.0608
75973,Shelbyville,TX,Shelby,31.7131,-93.9698
75974,Tenaha,TX,Shelby,31.9408,-94.2488
75975,Timpson,TX,Shelby,31.8841,-94.3967
79084,Stratford,TX,Sherman,36.3335,-101.9886
75701,Tyler,TX,Smith,32.3254,-95.2922
75702,Tyler,TX,Smith,32.362,-95.3117
75703,Tyler,TX,Smith,32.2768,-95.3031
75704,Tyler,TX,Smith,32.3738,-95.407
75705,Tyler,TX,Smith,32.3766,-95.1252
75706,Tyler,TX,Smith,32.4441,-95.331
75707,Tyler,TX,Smith,32.3038,-95.1927
75708,Tyler,TX,Smith,32.419,-95.2106
75709,Tyler,TX,Smith,32.3078,-95.3956
75710,Tyler,TX,Smith,32.3475,-95.3065
75711,Tyler,TX,Smith,32.5399,-95.42
75712,Tyler,TX,Smith,32.4112,-95.2899
75713,Tyler,TX,Smith,32.4112,-95.2899
75750,Arp,TX,Smith,32.2418,-95.0639
75757,Bullard,TX,Smith,32.1095,-95.3342
75762,Flint,TX,Smith,32.2079,-95.3948
75771,Lindale,TX,Smith,32.5062,-95.4006
75789,Troup,TX,Smith,32.1117,-95.1155
75791,Whitehouse,TX,Smith,32.222,-95.2266
75792,Winona,TX,Smith,32.4662,-95.1246
75798,Tyler,TX,Smith,32.4112,-95.2899
75799,Tyler,TX,Smith,32.4112,-95.2899
76043,Glen Rose,TX,Somervell,32.2298,-97.7629
76070,Nemo,TX,Somervell,32.2713,-97.6567
76077,Rainbow,TX,Somervell,32.2812,-97.7065
78536,Delmita,TX,Starr,26.4214,-98.8488
78545,Falcon Heights,TX,Starr,26.562,-99.1335
78547,Garciasville,TX,Starr,26.3396,-98.6876
78548,Grulla,TX,Starr,26.2897,-98.6479
78582,Rio Grande City,TX,Starr,26.3942,-98.8104
78584,Roma,TX,Starr,26.4215,-99.0025
78585,Salineno,TX,Starr,26.5104,-98.7464
78588,San Isidro,TX,Starr,26.7342,-98.4819
78591,Santa Elena,TX,Starr,26.7499,-98.583
76424,Breckenridge,TX,Stephens,32.7532,-98.9099
76429,Caddo,TX,Stephens,32.6886,-98.659
76951,Sterling City,TX,Sterling,31.8351,-101.0017
79502,Aspermont,TX,Stonewall,33.1301,-100.2344
79540,Old Glory,TX,Stonewall,33.1786,-100.0502
76950,Sonora,TX,Sutton,30.5558,-100.6307
79042,Happy,TX,Swisher,34.7219,-101.8256
79052,Kress,TX,Swisher,34.3737,-101.737
79088,Tulia,TX,Swisher,34.5583,-101.8039
76001,Arlington,TX,Tarrant,32.6289,-97.1517
76002,Arlington,TX,Tarrant,32.6255,-97.0784
76003,Arlington,TX,Tarrant,32.7417,-97.2253
76004,Arlington,TX,Tarrant,32.7714,-97.2915
76005,Arlington,TX,Tarrant,32.7714,-97.2915
76006,Arlington,TX,Tarrant,32.7785,-97.0834
76007,Arlington,TX,Tarrant,32.7714,-97.2915
76010,Arlington,TX,Tarrant,32.7204,-97.0826
76011,Arlington,TX,Tarrant,32.7582,-97.1003
76012,Arlington,TX,Tarrant,32.754,-97.1348
76013,Arlington,TX,Tarrant,32.7199,-97.1442
76014,Arlington,TX,Tarrant,32.6954,-97.0876
76015,Arlington,TX,Tarrant,32.6931,-97.1347
76016,Arlington,TX,Tarrant,32.6889,-97.1905
76017,Arlington,TX,Tarrant,32.6554,-97.1599
76018,Arlington,TX,Tarrant,32.6548,-97.092
76019,Arlington,TX,Tarrant,32.7714,-97.2915
76020,Azle,TX,Tarrant,32.9035,-97.5412
76021,Bedford,TX,Tarrant,32.8536,-97.1358
76022,Bedford,TX,Tarrant,32.8297,-97.1454
76034,Colleyville,TX,Tarrant,32.8872,-97.146
76036,Crowley,TX,Tarrant,32.5814,-97.3703
76039,Euless,TX,Tarrant,32.8582,-97.0832
76040,Euless,TX,Tarrant,32.8264,-97.0972
76051,Grapevine,TX,Tarrant,32.9328,-97.0808
76052,Haslet,TX,Tarrant,32.9557,-97.3372
76053,Hurst,TX,Tarrant,32.8211,-97.1756
76054,Hurst,TX,Tarrant,32.8558,-97.1755
76060,Kennedale,TX,Tarrant,32.6432,-97.2139
76063,Mansfield,TX,Tarrant,32.5773,-97.1416
76092,Southlake,TX,Tarrant,32.9485,-97.1524
76094,Arlington,TX,Tarrant,32.7714,-97.2915
76095,Bedford,TX,Tarrant,32.7714,-97.2915
76096,Arlington,TX,Tarrant,32.7714,-97.2915
76099,Grapevine,TX,Tarrant,32.7714,-97.2915
76101,Fort Worth,TX,Tarrant,32.7714,-97.2915
76102,Fort Worth,TX,Tarrant,32.7589,-97.328
76103,Fort Worth,TX,Tarrant,32.747,-97.2604
76104,Fort Worth,TX,Tarrant,32.7256,-97.3184
76105,Fort Worth,TX,Tarrant,32.7233,-97.269
76106,Fort Worth,TX,Tarrant,32.7968,-97.356
76107,Fort Worth,TX,Tarrant,32.7392,-97.3852
76108,Fort Worth,TX,Tarrant,32.7822,-97.4969
76109,Fort Worth,TX,Tarrant,32.7002,-97.3789
76110,Fort Worth,TX,Tarrant,32.7065,-97.3375
76111,Fort Worth,TX,Tarrant,32.7824,-97.3003
76112,Fort Worth,TX,Tarrant,32.7493,-97.2181
76113,Fort Worth,TX,Tarrant,32.7714,-97.2915
76114,Fort Worth,TX,Tarrant,32.7796,-97.3928
76115,Fort Worth,TX,Tarrant,32.6796,-97.3336
76116,Fort Worth,TX,Tarrant,32.723,-97.4483
76117,Haltom City,TX,Tarrant,32.8087,-97.2709
76118,Fort Worth,TX,Tarrant,32.8013,-97.1952
76119,Fort Worth,TX,Tarrant,32.6914,-97.2675
76120,Fort Worth,TX,Tarrant,32.7639,-97.1781
76121,Fort Worth,TX,Tarrant,32.7714,-97.2915
76122,Fort Worth,TX,Tarrant,32.7714,-97.2915
76123,Fort Worth,TX,Tarrant,32.6254,-97.3658
76124,Fort Worth,TX,Tarrant,32.7714,-97.2915
76126,Fort Worth,TX,Tarrant,32.64,-97.5448
76127,Naval Air Station/ Jrb,TX,Tarrant,32.7772,-97.4184
76129,Fort Worth,TX,Tarrant,32.7714,-97.2915
76130,Fort Worth,TX,Tarrant,32.7714,-97.2915
76131,Fort Worth,TX,Tarrant,32.8632,-97.3377
76132,Fort Worth,TX,Tarrant,32.6711,-97.4056
76133,Fort Worth,TX,Tarrant,32.6526,-97.3758
76134,Fort Worth,TX,Tarrant,32.6469,-97.3325
76135,Fort Worth,TX,Tarrant,32.8248,-97.4519
76136,Fort Worth,TX,Tarrant,32.7714,-97.2915
76137,Fort Worth,TX,Tarrant,32.8664,-97.2891
76140,Fort Worth,TX,Tarrant,32.6192,-97.2735
76147,Fort Worth,TX,Tarrant,32.7714,-97.2915
76148,Fort Worth,TX,Tarrant,32.8621,-97.2508
76150,Fort Worth,TX,Tarrant,32.7714,-97.2915
76155,Fort Worth,TX,Tarrant,32.8247,-97.0503
76161,Fort Worth,TX,Tarrant,32.7714,-97.2915
76162,Fort Worth,TX,Tarrant,32.7714,-97.2915
76163,Fort Worth,TX,Tarrant,32.7714,-97.2915
76164,Fort Worth,TX,Tarrant,32.7714,-97.2915
76177,Fort Worth,TX,Tarrant,32.9448,-97.3124
76178,Fort Worth,TX,Tarrant,32.7714,-97.2915
76179,Fort Worth,TX,Tarrant,32.9074,-97.4257
76180,North Richland Hills,TX,Tarrant,32.868,-97.2174
76181,Fort Worth,TX,Tarrant,32.7714,-97.2915
76182,North Richland Hills,TX,Tarrant,32.7714,-97.2915
76185,Fort Worth,TX,Tarrant,32.7714,-97.2915
76191,Fort Worth,TX,Tarrant,32.7714,-97.2915
76192,Fort Worth,TX,Tarrant,32.7714,-97.2915
76193,Fort Worth,TX,Tarrant,32.7714,-97.2915
76195,Fort Worth,TX,Tarrant,32.7714,-97.2915
76196,Fort Worth,TX,Tarrant,32.7714,-97.2915
76197,Fort Worth,TX,Tarrant,32.7714,-97.2915
76198,Fort Worth,TX,Tarrant,32.7714,-97.2915
76199,Fort Worth,TX,Tarrant,32.7714,-97.2915
76244,Keller,TX,Tarrant,32.7714,-97.2915
76248,Keller,TX,Tarrant,32.9276,-97.2489
79508,Buffalo Gap,TX,Taylor,32.2894,-99.8103
79530,Lawn,TX,Taylor,32.136,-99.7351
79536,Merkel,TX,Taylor,32.4444,-99.9924
79541,Ovalo,TX,Taylor,32.1553,-99.8229
79561,Trent,TX,Taylor,32.4898,-100.1195
79562,Tuscola,TX,Taylor,32.235,-99.8244
79563,Tye,TX,Taylor,32.4477,-99.8684
79601,Abilene,TX,Taylor,32.4682,-99.7182
79602,Abilene,TX,Taylor,32.4178,-99.7214
79603,Abilene,TX,Taylor,32.4679,-99.7619
79604,Abilene,TX,Taylor,32.4288,-99.7952
79605,Abilene,TX,Taylor,32.432,-99.7724
79606,Abilene,TX,Taylor,32.392,-99.7746
79607,Dyess Afb,TX,Taylor,32.419,-99.8221
79608,Abilene,TX,Taylor,32.3021,-99.8907
79697,Abilene,TX,Taylor,32.3021,-99.8907
79698,Abilene,TX,Taylor,32.4751,-99.7348
79699,Abilene,TX,Taylor,32.4665,-99.7117
78851,Dryden,TX,Terrell,30.2186,-102.1066
79848,Sanderson,TX,Terrell,30.1221,-102.3974
79316,Brownfield,TX,Terry,33.1698,-102.2762
79345,Meadow,TX,Terry,33.3321,-102.2492
79378,Wellman,TX,Terry,33.0473,-102.4282
76483,Throckmorton,TX,Throckmorton,33.1794,-99.1838
76491,Woodson,TX,Throckmorton,33.0741,-99.0546
75455,Mount Pleasant,TX,Titus,33.1733,-94.9695
75456,Mount Pleasant,TX,Titus,33.1904,-94.9675
75493,Winfield,TX,Titus,33.1666,-95.109
75558,Cookville,TX,Titus,33.2432,-94.8747
76886,Veribest,TX,Tom Green,31.3493,-100.4949
76901,San Angelo,TX,Tom Green,31.4782,-100.4818
76902,San Angelo,TX,Tom Green,31.3958,-100.6896
76903,San Angelo,TX,Tom Green,31.4707,-100.4386
76904,San Angelo,TX,Tom Green,31.4194,-100.48
76905,San Angelo,TX,Tom Green,31.4647,-100.39
76906,San Angelo,TX,Tom Green,31.3728,-100.4951
76908,Goodfellow Afb,TX,Tom Green,31.3958,-100.6896
76909,San Angelo,TX,Tom Green,31.3958,-100.6896
76934,Carlsbad,TX,Tom Green,31.6266,-100.6694
76935,Christoval,TX,Tom Green,31.2346,-100.5203
76939,Knickerbocker,TX,Tom Green,31.2501,-100.592
76940,Mereta,TX,Tom Green,31.4518,-100.1349
76955,Vancourt,TX,Tom Green,31.3132,-100.1328
76957,Wall,TX,Tom Green,31.3598,-100.2067
76958,Water Valley,TX,Tom Green,31.6453,-100.716
73301,Austin,TX,Travis,30.3264,-97.7713
73344,Austin,TX,Travis,30.3264,-97.7713
78617,Del Valle,TX,Travis,30.1745,-97.6134
78645,Leander,TX,Travis,30.449,-97.9669
78651,Mc Neil,TX,Travis,30.3264,-97.7713
78652,Manchaca,TX,Travis,30.1238,-97.8393
78653,Manor,TX,Travis,30.3388,-97.5323
78660,Pflugerville,TX,Travis,30.4421,-97.6299
78669,Spicewood,TX,Travis,30.3899,-98.0539
78691,Pflugerville,TX,Travis,30.3264,-97.7713
78701,Austin,TX,Travis,30.2713,-97.7426
78702,Austin,TX,Travis,30.2638,-97.7166
78703,Austin,TX,Travis,30.2907,-97.7648
78704,Austin,TX,Travis,30.2428,-97.7658
78705,Austin,TX,Travis,30.2896,-97.7396
78708,Austin,TX,Travis,30.3264,-97.7713
78709,Austin,TX,Travis,30.3264,-97.7713
78710,Austin,TX,Travis,30.352,-97.7151
78711,Austin,TX,Travis,30.3264,-97.7713
78712,Austin,TX,Travis,30.2852,-97.7354
78713,Austin,TX,Travis,30.4686,-97.8433
78714,Austin,TX,Travis,30.3358,-97.4438
78715,Austin,TX,Travis,30.4501,-97.4865
78716,Austin,TX,Travis,30.3162,-97.8588
78718,Austin,TX,Travis,30.3264,-97.7713
78719,Austin,TX,Travis,30.1802,-97.6667
78720,Austin,TX,Travis,30.3264,-97.7713
78721,Austin,TX,Travis,30.2721,-97.6868
78722,Austin,TX,Travis,30.2893,-97.715
78723,Austin,TX,Travis,30.3085,-97.6849
78724,Austin,TX,Travis,30.296,-97.6396
78725,Austin,TX,Travis,30.2562,-97.6243
78726,Austin,TX,Travis,30.43,-97.8326
78727,Austin,TX,Travis,30.4254,-97.7195
78728,Austin,TX,Travis,30.4417,-97.6811
78730,Austin,TX,Travis,30.3607,-97.8241
78731,Austin,TX,Travis,30.3471,-97.7609
78732,Austin,TX,Travis,30.3752,-97.9007
78733,Austin,TX,Travis,30.3314,-97.8666
78734,Austin,TX,Travis,30.3705,-97.9427
78735,Austin,TX,Travis,30.249,-97.8414
78736,Austin,TX,Travis,30.2444,-97.916
78737,Austin,TX,Travis,30.2107,-97.9427
78738,Austin,TX,Travis,30.3337,-97.9824
78739,Austin,TX,Travis,30.172,-97.8784
78741,Austin,TX,Travis,30.2315,-97.7223
78742,Austin,TX,Travis,30.2313,-97.6703
78744,Austin,TX,Travis,30.1876,-97.7472
78745,Austin,TX,Travis,30.2063,-97.7956
78746,Austin,TX,Travis,30.2971,-97.8181
78747,Austin,TX,Travis,30.1204,-97.7433
78748,Austin,TX,Travis,30.1743,-97.8225
78749,Austin,TX,Travis,30.2166,-97.8508
78750,Austin,TX,Travis,30.4224,-97.7967
78751,Austin,TX,Travis,30.3093,-97.7242
78752,Austin,TX,Travis,30.3316,-97.7004
78753,Austin,TX,Travis,30.3648,-97.6827
78754,Austin,TX,Travis,30.3423,-97.6673
78755,Austin,TX,Travis,30.3264,-97.7713
78756,Austin,TX,Travis,30.3223,-97.739
78757,Austin,TX,Travis,30.3437,-97.7316
78758,Austin,TX,Travis,30.3764,-97.7078
78759,Austin,TX,Travis,30.4036,-97.7526
78760,Austin,TX,Travis,30.3264,-97.7713
78761,Austin,TX,Travis,30.3264,-97.7713
78762,Austin,TX,Travis,30.3264,-97.7713
78763,Austin,TX,Travis,30.3354,-97.5598
78764,Austin,TX,Travis,30.4455,-97.6595
78765,Austin,TX,Travis,30.3264,-97.7713
78766,Austin,TX,Travis,30.4422,-97.6233
78767,Austin,TX,Travis,30.222,-97.8963
78768,Austin,TX,Travis,30.3264,-97.7713
78769,Austin,TX,Travis,30.3264,-97.7713
78771,Austin,TX,Travis,30.3264,-97.7713
78772,Austin,TX,Travis,30.3264,-97.7713
78773,Austin,TX,Travis,30.3264,-97.7713
78774,Austin,TX,Travis,30.3264,-97.7713
78778,Austin,TX,Travis,30.3264,-97.7713
78779,Austin,TX,Travis,30.3264,-97.7713
78780,Austin,TX,Travis,30.3264,-97.7713
78781,Austin,TX,Travis,30.3264,-97.7713
78782,Austin,TX,Travis,30.3264,-97.7713
78783,Austin,TX,Travis,30.3264,-97.7713
78785,Austin,TX,Travis,30.3264,-97.7713
78786,Austin,TX,Travis,30.3264,-97.7713
78787,Austin,TX,Travis,30.3264,-97.7713
78788,Austin,TX,Travis,30.3264,-97.7713
78789,Austin,TX,Travis,30.3264,-97.7713
75834,Centralia,TX,Trinity,31.1058,-95.1388
75845,Groveton,TX,Trinity,31.0651,-95.0969
75856,Pennington,TX,Trinity,31.1953,-95.2469
75862,Trinity,TX,Trinity,30.942,-95.3403
75865,Woodlake,TX,Trinity,31.1058,-95.1388
75926,Apple Springs,TX,Trinity,31.2269,-94.9812
75936,Chester,TX,Tyler,30.9447,-94.5554
75938,Colmesneil,TX,Tyler,30.9007,-94.3916
75942,Doucette,TX,Tyler,30.8173,-94.3979
75979,Woodville,TX,Tyler,30.7585,-94.3669
75990,Woodville,TX,Tyler,30.7927,-94.3545
77616,Fred,TX,Tyler,30.5773,-94.1985
77624,Hillister,TX,Tyler,30.675,-94.3534
77660,Spurger,TX,Tyler,30.6387,-94.1663
77664,Warren,TX,Tyler,30.5978,-94.412
75640,Diana,TX,Upshur,32.7698,-94.7032
75644,Gilmer,TX,Upshur,32.7246,-94.9714
75645,Gilmer,TX,Upshur,32.6044,-94.8491
75683,Ore City,TX,Upshur,32.7856,-94.7514
75755,Big Sandy,TX,Upshur,32.6168,-95.088
79752,Mc Camey,TX,Upton,31.1319,-102.2153
79755,Midkiff,TX,Upton,31.5424,-101.9244
79778,Rankin,TX,Upton,31.2266,-101.9441
78801,Uvalde,TX,Uvalde,29.2172,-99.7931
78802,Uvalde,TX,Uvalde,29.2237,-99.7794
78838,Concan,TX,Uvalde,29.5474,-99.7128
78870,Knippa,TX,Uvalde,29.2911,-99.6372
78881,Sabinal,TX,Uvalde,29.3267,-99.4781
78884,Utopia,TX,Uvalde,29.5972,-99.5585
78837,Comstock,TX,Val Verde,29.7484,-101.2628
78840,Del Rio,TX,Val Verde,29.4102,-100.8932
78841,Del Rio,TX,Val Verde,29.3465,-100.9289
78842,Del Rio,TX,Val Verde,29.412,-100.9342
78843,Laughlin A F B,TX,Val Verde,29.3564,-100.7927
78847,Del Rio,TX,Val Verde,29.7632,-101.23
78871,Langtry,TX,Val Verde,29.7632,-101.23
75103,Canton,TX,Van Zandt,32.5143,-95.9047
75117,Edgewood,TX,Van Zandt,32.7003,-95.878
75127,Fruitvale,TX,Van Zandt,32.677,-95.7899
75140,Grand Saline,TX,Van Zandt,32.6635,-95.7064
75169,Wills Point,TX,Van Zandt,32.7283,-96.0079
75754,Ben Wheeler,TX,Van Zandt,32.4126,-95.6371
75790,Van,TX,Van Zandt,32.5283,-95.6545
77901,Victoria,TX,Victoria,28.809,-96.9993
77902,Victoria,TX,Victoria,28.9255,-97.1006
77903,Victoria,TX,Victoria,28.7949,-96.9741
77904,Victoria,TX,Victoria,28.8675,-96.999
77905,Victoria,TX,Victoria,28.7525,-97.0338
77951,Bloomington,TX,Victoria,28.6495,-96.8945
77968,Inez,TX,Victoria,28.8994,-96.8003
77973,Mcfaddin,TX,Victoria,28.5511,-97.0099
77976,Nursery,TX,Victoria,28.9543,-97.0906
77977,Placedo,TX,Victoria,28.6923,-96.8254
77988,Telferner,TX,Victoria,28.8538,-96.8774
77320,Huntsville,TX,Walker,30.847,-95.597
77334,Dodge,TX,Walker,30.772,-95.3838
77340,Huntsville,TX,Walker,30.6448,-95.5798
77341,Huntsville,TX,Walker,30.7142,-95.5508
77342,Huntsville,TX,Walker,30.7813,-95.5953
77343,Huntsville,TX,Walker,30.7813,-95.5953
77344,Huntsville,TX,Walker,30.7813,-95.5953
77348,Huntsville,TX,Walker,30.7813,-95.5953
77349,Huntsville,TX,Walker,30.7813,-95.5953
77358,New Waverly,TX,Walker,30.5354,-95.4532
77367,Riverside,TX,Walker,30.8476,-95.3904
77423,Brookshire,TX,Waller,29.8072,-95.9755
77445,Hempstead,TX,Waller,30.092,-96.0716
77446,Prairie View,TX,Waller,30.0836,-95.9866
77466,Pattison,TX,Waller,29.8173,-96.0073
77484,Waller,TX,Waller,30.071,-95.9253
79719,Barstow,TX,Ward,31.4639,-103.3971
79742,Grandfalls,TX,Ward,31.3459,-102.8568
79756,Monahans,TX,Ward,31.5813,-102.9003
79777,Pyote,TX,Ward,31.5387,-103.1267
79779,Royalty,TX,Ward,31.4594,-103.189
79788,Wickett,TX,Ward,31.5692,-103.0067
77426,Chappell Hill,TX,Washington,30.1833,-96.2347
77833,Brenham,TX,Washington,30.1774,-96.4028
77834,Brenham,TX,Washington,30.2313,-96.2904
77835,Burton,TX,Washington,30.1767,-96.5925
77880,Washington,TX,Washington,30.3182,-96.2249
78040,Laredo,TX,Webb,27.5155,-99.4986
78041,Laredo,TX,Webb,27.5569,-99.4907
78042,Laredo,TX,Webb,27.5655,-99.4768
78043,Laredo,TX,Webb,27.5879,-99.2176
78044,Laredo,TX,Webb,27.3637,-99.4819
78045,Laredo,TX,Webb,27.6357,-99.5923
78046,Laredo,TX,Webb,27.4047,-99.4743
78049,Laredo,TX,Webb,27.7321,-99.5051
78344,Bruni,TX,Webb,27.4295,-98.8385
78369,Mirando City,TX,Webb,27.445,-99.0011
78371,Oilton,TX,Webb,27.4685,-98.9586
77420,Boling,TX,Wharton,29.2529,-95.974
77432,Danevang,TX,Wharton,29.067,-96.1976
77435,East Bernard,TX,Wharton,29.4705,-96.1211
77436,Egypt,TX,Wharton,29.3758,-96.228
77437,El Campo,TX,Wharton,29.2008,-96.2743
77443,Glen Flora,TX,Wharton,29.3353,-96.1754
77448,Hungerford,TX,Wharton,29.4137,-96.0929
77453,Lane City,TX,Wharton,29.1704,-96.0142
77454,Lissie,TX,Wharton,29.5353,-96.2303
77455,Louise,TX,Wharton,29.1491,-96.3924
77462,Newgulf,TX,Wharton,29.2985,-96.2411
77467,Pierce,TX,Wharton,29.2052,-96.1369
77488,Wharton,TX,Wharton,29.3205,-96.0858
79003,Allison,TX,Wheeler,35.642,-100.092
79011,Briscoe,TX,Wheeler,35.5855,-100.1679
79061,Mobeetie,TX,Wheeler,35.5297,-100.4242
79079,Shamrock,TX,Wheeler,35.3153,-100.2722
79096,Wheeler,TX,Wheeler,35.4319,-100.2568
76301,Wichita Falls,TX,Wichita,33.9053,-98.4976
76302,Wichita Falls,TX,Wichita,33.8643,-98.494
76305,Wichita Falls,TX,Wichita,33.9938,-98.5132
76306,Wichita Falls,TX,Wichita,33.9519,-98.5145
76307,Wichita Falls,TX,Wichita,33.8777,-98.4946
76308,Wichita Falls,TX,Wichita,33.8633,-98.534
76309,Wichita Falls,TX,Wichita,33.8931,-98.5343
76310,Wichita Falls,TX,Wichita,33.8581,-98.5755
76311,Sheppard Afb,TX,Wichita,33.9824,-98.5088
76354,Burkburnett,TX,Wichita,34.086,-98.5708
76360,Electra,TX,Wichita,34.0362,-98.9154
76367,Iowa Park,TX,Wichita,33.9424,-98.6745
76369,Kamay,TX,Wichita,34.0234,-98.6877
76364,Harrold,TX,Wilbarger,34.0971,-99.0351
76373,Oklaunion,TX,Wilbarger,34.1456,-99.107
76384,Vernon,TX,Wilbarger,34.1491,-99.303
76385,Vernon,TX,Wilbarger,34.1464,-99.2141
79247,Odell,TX,Wilbarger,34.3452,-99.4196
78561,Lasara,TX,Willacy,26.5613,-97.43
78569,Lyford,TX,Willacy,26.4089,-97.7817
78580,Raymondville,TX,Willacy,26.4792,-97.7967
78590,San Perlita,TX,Willacy,26.4555,-97.5858
78594,Sebastian,TX,Willacy,26.344,-97.8123
78598,Port Mansfield,TX,Willacy,26.543,-97.3743
76527,Florence,TX,Williamson,30.8076,-97.7812
76530,Granger,TX,Williamson,30.7398,-97.4451
76537,Jarrell,TX,Williamson,30.8119,-97.5942
76573,Schwertner,TX,Williamson,30.8055,-97.4705
76574,Taylor,TX,Williamson,30.5807,-97.4401
76578,Thrall,TX,Williamson,30.592,-97.2893
78613,Cedar Park,TX,Williamson,30.4772,-97.8176
78615,Coupland,TX,Williamson,30.4872,-97.3676
78626,Georgetown,TX,Williamson,30.633,-97.6707
78627,Georgetown,TX,Williamson,30.6736,-97.6461
78628,Georgetown,TX,Williamson,30.6922,-97.756
78630,Cedar Park,TX,Williamson,30.6568,-97.6026
78634,Hutto,TX,Williamson,30.5257,-97.5672
78641,Leander,TX,Williamson,30.5835,-97.8575
78642,Liberty Hill,TX,Williamson,30.663,-97.9316
78646,Leander,TX,Williamson,30.6568,-97.6026
78664,Round Rock,TX,Williamson,30.5145,-97.668
78673,Walburg,TX,Williamson,30.7415,-97.5891
78674,Weir,TX,Williamson,30.6747,-97.5929
78680,Round Rock,TX,Williamson,30.6568,-97.6026
78681,Round Rock,TX,Williamson,30.5084,-97.7062
78682,Round Rock,TX,Williamson,30.6568,-97.6026
78683,Round Rock,TX,Williamson,30.6568,-97.6026
78717,Austin,TX,Williamson,30.506,-97.7472
78729,Austin,TX,Williamson,30.4521,-97.7688
78114,Floresville,TX,Wilson,29.1693,-98.1936
78121,La Vernia,TX,Wilson,29.3509,-98.113
78143,Pandora,TX,Wilson,29.2484,-97.8287
78147,Poth,TX,Wilson,29.0619,-98.0825
78160,Stockdale,TX,Wilson,29.2319,-97.9351
78161,Sutherland Springs,TX,Wilson,29.2888,-98.0509
79745,Kermit,TX,Winkler,31.855,-103.0913
79789,Wink,TX,Winkler,31.7527,-103.1561
76023,Boyd,TX,Wise,33.0594,-97.5868
76071,Newark,TX,Wise,33.007,-97.4923
76073,Paradise,TX,Wise,33.0826,-97.6974
76078,Rhome,TX,Wise,33.054,-97.4817
76225,Alvord,TX,Wise,33.3698,-97.6885
76234,Decatur,TX,Wise,33.2351,-97.574
76246,Greenwood,TX,Wise,33.407,-97.4716
76267,Slidell,TX,Wise,33.378,-97.3922
76426,Bridgeport,TX,Wise,33.187,-97.781
76431,Chico,TX,Wise,33.3193,-97.8031
75444,Golden,TX,Wood,32.7299,-95.5636
75494,Winnsboro,TX,Wood,32.9146,-95.2726
75497,Yantis,TX,Wood,32.9257,-95.5311
75765,Hawkins,TX,Wood,32.6439,-95.222
75773,Mineola,TX,Wood,32.6661,-95.487
75783,Quitman,TX,Wood,32.8049,-95.4302
79323,Denver City,TX,Yoakum,32.9711,-102.8313
79355,Plains,TX,Yoakum,33.1894,-102.8294
79376,Tokio,TX,Yoakum,33.1826,-102.5768
76372,Newcastle,TX,Young,33.1901,-98.7446
76374,Olney,TX,Young,33.3601,-98.7427
76450,Graham,TX,Young,33.0993,-98.5832
76460,Loving,TX,Young,33.2689,-98.5024
76481,South Bend,TX,Young,33.0052,-98.6892
78067,San Ygnacio,TX,Zapata,27.1583,-99.3202
78076,Zapata,TX,Zapata,26.8897,-99.2506
78564,Lopeno,TX,Zapata,26.9454,-99.204
78829,Batesville,TX,Zavala,28.9286,-99.6115
78839,Crystal City,TX,Zavala,28.687,-99.8264
78872,La Pryor,TX,Zavala,28.9488,-99.8507
75084,Irving,TX,,32.8137,-96.9485
75156,Mabank,TX,Henderson,32.2972,-96.1184
75334,Dallas,TX,,32.6746,-96.6198
75340,Dallas,TX,,32.7699,-96.8641
75343,Dallas,TX,,32.7699,-96.8641
75344,Dallas,TX,,32.7825,-96.7986
75358,Dallas,TX,,32.7942,-96.7652
75369,Dallas,TX,,32.7835,-96.8001
75797,Big Sandy,TX,,32.5765,-95.1313
75957,Magnolia Springs,TX,,30.7629,-94.0709
76000,Arlington,TX,,32.6945,-97.1275
76166,Fort Worth,TX,,32.7539,-97.3362
76303,Wichita Falls,TX,,33.9002,-98.4609
76304,Wichita Falls,TX,,33.9319,-98.4992
76359,Elbert,TX,,33.0157,-99.0552
76383,Vera,TX,,33.6337,-99.8039
76456,Hasse,TX,,31.9082,-98.6579
76517,Ben Arnold,TX,,30.9635,-96.9876
76576,Gatesville,TX,,31.434,-97.7478
76625,Birome,TX,,31.8553,-96.9429
76796,Waco,TX,,31.5915,-97.0823
76889,Whon,TX,,31.6446,-99.3112
77246,Houston,TX,,29.6403,-95.4359
77247,Houston,TX,,29.6403,-95.4359
77250,Houston,TX,,29.7629,-95.3629
77260,Houston,TX,,29.7687,-95.3867
77276,Houston,TX,,29.7575,-95.3668
77278,Houston,TX,,29.7699,-95.5113
77285,Houston,TX,,29.7554,-95.3678
77286,Houston,TX,,29.6745,-95.3679
77294,Houston,TX,,29.8615,-95.2476
77296,Houston,TX,,29.7626,-95.3641
77711,Lumberton,TX,,30.2595,-94.2012
78541,Edinburg,TX,Hidalgo,26.2959,-98.1641
78574,Mission,TX,Hidalgo,26.2183,-98.327
78633,Georgetown,TX,,30.7177,-97.7543
78743,Austin,TX,,30.2668,-97.7426
78798,Austin,TX,,30.3718,-97.6826
78799,Austin,TX,,30.2962,-97.757
78835,Del Rio,TX,,29.8489,-100.8824
78964,Winchester,TX,,30.009,-97.0135
79161,Amarillo,TX,,35.1885,-101.8165
79173,Amarillo,TX,,35.1885,-101.8165
79176,Amarillo,TX,,35.1885,-101.8165
79177,Amarillo,TX,,35.1885,-101.8165
79188,Amarillo,TX,,35.1885,-101.8165
79260,Crowell,TX,,33.7585,-99.6602
79321,Cone,TX,,33.5995,-101.3555
79489,Reese Air Force Base,TX,,33.5936,-102.0291
79542,Peacock,TX,,33.2562,-100.4222
79709,Midland,TX,,32.0265,-102.1002
79767,Odessa,TX,,31.8744,-102.3483